"Name"|"Street"|"City"|"State"|"Email"|"Phone"|"Lat"|"Long"|"County"
"Birmingham"|"2201 1st Ave North, 1st Floor"|"Birmingham"|"AL"|"ltownsend@barackobama.com"|"(205) 202-4200"|33.515695|-86.802544|"""Jefferson"""
"Anchorage"|"2602 Fairbanks Street"|"Anchorage"|"AK"|"alaska@barackobama.com"|"(907) 223-6300"|61.1967686|-149.8727368|"""Anchorage"""
"Tucson"|"4639 E. 1st"|"Tucson"|"AZ"|"tgervais@ofaaz.com"|"(520) 505-1584"|32.2350712|-110.8939721|"""Pima"""
"Phoenix"|"103 W Highland, Suite 101"|"Phoenix"|"AZ"|"aelmo@ofaaz.com"|"(602) 264-8136"|33.5056892|-112.0754735|"""Maricopa"""
"North Little Rock"|"201 W Broadway, Suite G"|"North Little Rock"|"AR"|"gmoody@barackobama.com"|"(501) 358-8409"|34.756364|-92.269568|"""Pulaski"""
"Los Angeles"|"10401 Venice Blvd, 2nd floor"|"Los Angeles"|"CA"||"(310) 421-1051"|34.0205654|-118.4046101|"""Los Angeles"""
"Sacramento"|"6760 Folsom Blvd."|"Sacramento"|"CA"|||38.552884|-121.424907|"""Sacramento"""
"Los Angeles"|"5444 Crenshaw Blvd. Suite 100"|"Los Angeles"|"CA"||"(310) 421-1061"|33.991883|-118.330254|"""Los Angeles"""
"Cathedral City"|"67-555 East Palm Canyon Drive"|"Cathedral City"|"CA"|||33.781252|-116.4691923|"""Riverside"""
"San Jose"|"23 N. Market Street"|"San Jose"|"CA"|||37.3359185|-121.8925929|"""Santa Clara"""
"Los Angeles"|"1167 East Florence Avenue"|"Los Angeles"|"CA"|||33.975096|-118.254061|"""Los Angeles"""
"San Diego"|"4660 El Cajon Blvd., Suite 206"|"San Diego"|"CA"|||32.756399|-117.093657|"""San Diego"""
"Mountain View"|"1411 West El Camino Real"|"Mountain View"|"CA"|"besfandiari@ofacalifornia.com"|"(650) 799-4067"|37.388851|-122.09115|"""Santa Clara"""
"San Rafael"|"1654 Second Street"|"San Rafael"|"CA"|"MMcCollister@ofacalifornia.com"|"(916) 802-2817"|37.972881|-122.53693|"""Marin"""
"Santa Monica"|"1408 Third Street, 3rd Floor"|"Santa Monica"|"CA"||"(310) 395-0177"|34.0154053|-118.49597|"""Los Angeles"""
"Oakland"|"300 Frank Ogawa Plaza, Suite 410"|"Oakland"|"CA"|||37.8056561|-122.2716461|"""Alameda"""
"Pasadena"|"140 N. Lake Street"|"Pasadena"|"CA"|||34.148417|-118.131924|"""Los Angeles"""
"San Francisco"|"2278 Market Street"|"San Francisco"|"CA"|||37.764811|-122.4326921|"""San Francisco"""
"Denver"|"77 W 9th Avenue"|"Denver"|"CO"|"southdenver@ofacolorado.com"|"(720) 436-8787"|39.7305078|-104.9884558|"""Denver"""
"Grand Junction"|"546 Main Street, Suite 403"|"Grand Junction"|"CO"|"grandjunction@ofacolorado.com"|"(720) 629-7711"|39.067472|-108.5633305|"""Mesa"""
"Fort Collins"|"401 S Mason Street"|"Fort Collins"|"CO"|"ftcollins@ofacolorado.com"|"(970) 275-0514"|40.582637|-105.079196|"""Larimer"""
"Lakewood"|"9797 W. Colfax, Suite 2-G"|"Lakewood"|"CO"|"lakewood@ofacolorado.com"|"(303) 547-4964"|39.740611|-105.107456|"""Jefferson"""
"Pueblo"|"330 S. Union Avenue"|"Pueblo"|"CO"|"pueblo@ofacolorado.com"|"(719) 647-7555"|38.2623589|-104.615553|"""Pueblo"""
"Colorado Springs"|"24 E Rio Grande"|"Colorado Springs"|"CO"|"cosprings@ofacolorado.com"|"(720) 885-5647"|38.8244835|-104.8246977|"""El Paso"""
"Thornton"|"550 E Thornton Pky, Suite 202"|"Thornton"|"CO"|"thornton@ofacolorado.com"|"(720) 539-2793"|39.869299|-104.979782|"""Adams"""
"Aurora"|"15451 E Mississippi Avenue, Suite B"|"Aurora"|"CO"|"aurora@ofacolorado.com"|"(720) 289-2852"|39.6966808|-104.8077349|"""Arapahoe"""
"Denver"|"3131 W Alameda Avenue"|"Denver"|"CO"|"westdenver@ofacolorado.com"|"(720) 365-4595"|39.711431|-105.027209|"""Denver"""
"Greeley"|"807 17th Street, Suite G"|"Greeley"|"CO"|"greeley@ofacolorado.com"|"(970) 231-9668"|40.4119317|-104.6914803|"""Weld"""
"Boulder"|"2206 Pearl Street"|"Boulder"|"CO"|"boulder@ofacolorado.com"|"(720) 235-7079"|40.020384|-105.26637|"""Boulder"""
"Durango"|"572 E. Third Avenue, 1st Floor"|"Durango"|"CO"|"durango@ofacolorado.com"|"(970) 457-7894"|37.269317|-107.878614|"""La Plata"""
"Glenwood Springs"|"912 Grand Avenue"|"Glenwood Springs"|"CO"|"glenwoodsprings@ofacolorado.com"|"(720) 326-6987"|39.5445613|-107.3247925|"""Garfield"""
"Denver"|"3100 Downing St, A"|"Denver"|"CO"|"fivepoints@ofacolorado.com"|"(720) 365-4921"|39.76092|-104.972999|"""Denver"""
"Loveland"|"601 E. Eisenhower, Unit 18"|"Loveland"|"CO"|"loveland@ofacolorado.com"|"(970) 275-9092"|40.4073457|-105.0691071|"""Larimer"""
"Longmont"|"1811 Hover St, Unit G"|"Longmont"|"CO"|"longmont@ofacolorado.com"|"(303) 704-7652"|40.1904468|-105.1309563|"""Boulder"""
"Littleton"|"11757 W Ken Caryl Ave, Suite K"|"Littleton"|"CO"|"kencaryl@ofacolorado.com"|"(303) 330-1851"|39.581717|-105.131743|"""Jefferson"""
"Highlands Ranch"|"36 W. Springer Dr."|"Highlands Ranch"|"CO"|"highlandsranch@ofacolorado.com"|"(720) 273-2280"|39.5598901|-104.9881224|"""Douglas"""
"Fountain"|"5520 S. US Highway 85-87, Suite 105"|"Fountain"|"CO"|"fountain@ofacolorado.com"|"(303) 476-0523"|38.6839435|-104.7045591|"""El Paso"""
"Silverthorne"|"285 Summit Place"|"Silverthorne"|"CO"|"summitcounty@ofacolorado.com"|"(970) 749-5348"|39.6272921|-106.0626318|"""Summit"""
"Woodland Park"|"1075 E Hwy 24"|"Woodland Park"|"CO"|"woodlandpark@ofacolorado.com"|"(970) 209-0686"|38.9833393|-105.0454458|"""Teller"""
"Colorado Springs"|"7608 N. Union Blvd., Unit E"|"Colorado Springs"|"CO"|"northcosprings@ofacolorado.com"|"(720) 459-1010"|38.9429284|-104.775087|"""El Paso"""
"Brighton"|"637 E Bridge St"|"Brighton"|"CO"|"brighton@ofacolorado.com"|"(720) 480-3156"|39.9868132|-104.8147082|"""Adams"""
"Broomfield"|"6821 W 120th Ave, Units C, D, E"|"Broomfield"|"CO"|"broomfield@ofacolorado.com"|"(720) 409-9808"|39.9143679|-105.0721281|"""Broomfield"""
"Boulder"|"2995 Baseline Rd, Suite 112"|"Boulder"|"CO"|"southboulder@ofacolorado.com"|"(720) 369-6213"|40.0001741|-105.2532584|"""Boulder"""
"Commerce City"|"6143 E 72nd Ave"|"Commerce City"|"CO"|"commercecity@ofacolorado.com"|"(720) 235-2674"|39.8272934|-104.9170127|"""Adams"""
"Steamboat Springs"|"401 Lincoln Ave, Suite C"|"Steamboat Springs"|"CO"|"steamboat@ofacolorado.com"|"(970) 367-6938"|40.4835876|-106.8303406|"""Routt"""
"Pueblo"|"1402 E. 4th St"|"Pueblo"|"CO"|"eastpueblo@ofacolorado.com"|"(719) 582-3025"|38.27091|-104.586273|"""Pueblo"""
"Arvada"|"7705 Wadsworth Blvd, Unit I"|"Arvada"|"CO"|"arvada@ofacolorado.com"|"(720) 454-9660"|39.837261|-105.082469|"""Jefferson"""
"Edwards"|"105 Edwards Village , A-103"|"Edwards"|"CO"|"edwards@ofacolorado.com"|"(970) 275-2838"|39.6443075|-106.5937012|"""Eagle"""
"Evergreen"|"1153 Bergen Parkway, Unit K"|"Evergreen"|"CO"|"evergreen@ofacolorado.com"|"(303) 887-0746"|39.693606|-105.357245|"""Jefferson"""
"Littleton"|"26 E. Arapahoe Rd, Unit 26"|"Littleton"|"CO"|"littleton@ofacolorado.com"|"(720) 252-2526"|39.594487|-104.98705|"""Arapahoe"""
"Aspen"|"100 S. Spring St., Unit 5"|"Aspen"|"CO"|"aspen@ofacolorado.com"|"(970) 343-0645"|39.189641|-106.81561|"""Pitkin"""
"Denver"|"4800 Oakland , Unit 1"|"Denver"|"CO"|"montbello@ofacolorado.com"|"(720) 429-6207"|39.7843255|-104.8506928|"""Denver"""
"Aurora"|"9801 E. Colfax Ave, Unit 102"|"Aurora"|"CO"|"eastcolfax@ofacolorado.com"||39.740977|-104.873576|"""Adams"""
"Ft. Collins"|"4206 S. College Ave, Unit 109"|"Ft. Collins"|"CO"|"southftcollins@ofacolorado.com"|"(970) 497-6531"|40.5296566|-105.076974|"""Larimer"""
"Aurora"|"7450 S. Gartrell , Unit B3"|"Aurora"|"CO"|"southaurora@ofacolorado.com"|"(720) 234-1905"|39.5657693|-104.7183366|"""Arapahoe"""
"Salida"|"142 W. 1st St"|"Salida"|"CO"|"salida@ofacolorado.com"|"(719) 207-0234"|38.5367155|-105.9924864|"""Chaffee"""
"Grand Junction"|"2454 HWY 6 &amp; 50 , Suite 112"|"Grand Junction"|"CO"|"ngrandjunction@ofacolorado.com"|"(970) 629-7711"|39.087698|-108.597232|"""Mesa"""
"Firestone"|"8110 Weld County Rd 13, Unit S2"|"Firestone"|"CO"|"firestone@ofacolorado.com"|"(970) 417-7757"|40.1605701|-104.9417496|"""Weld"""
"Trinidad"|"2124 Freedom Rd"|"Trinidad"|"CO"|"trinidad@ofacolorado.com"|"(719) 289-5689"|37.1881266|-104.4975503|"""Las Animas"""
"Pagosa Springs"|"527 San Juan St, Suite A"|"Pagosa Springs"|"CO"|"pagosasprings@ofacolorado.com"|"(970) 443-3678"|37.2663434|-107.0138633|"""Archuleta"""
"Montrose"|"823 E. Main St."|"Montrose"|"CO"|"montrose@ofacolorado.com"|"(970) 275-5121"|38.482977|-107.872186|"""Montrose"""
"Gunnison"|"722 N. Main St"|"Gunnison"|"CO"|"gunnison@ofacolorado.com"|"(970) 443-3532"|38.5522398|-106.9269102|"""Gunnison"""
"Cortez"|"2 W. Main St., Unit 4"|"Cortez"|"CO"|"cortez@ofacolorado.com"|"(970) 443-3608"|37.3486431|-108.5852564|"""Montezuma"""
"Carbondale"|"946 Hwy 133"|"Carbondale"|"CO"|"carbondale@ofacolorado.com"|"(970) 275-2838"|39.2582189|-107.2332798|"""Garfield"""
"Denver"|"2200-O S. Monaco Pkwy"|"Denver"|"CO"|"sedenver@ofacolorado.com"|"(720) 289-9224"|39.6765426|-104.9112068|"""Denver"""
"Louisville"|"1110 South Boulder Rd"|"Louisville"|"CO"|"louisville@ofacolorado.com"|"(720) 409-7339"|39.9868188|-105.1306522|"""Boulder"""
"Boulder"|"1159 13th St."|"Boulder"|"CO"|"cuboulder@ofacolorado.com"|"(720) 409-7337"|40.0079477|-105.2762256|"""Boulder"""
"Alamosa"|"1435 Main Street, Suite B"|"Alamosa"|"CO"|"alamosa@ofacolorado.com"|"(719) 289-4035"|37.468188|-105.877881|"""Alamosa"""
"Fairplay"|"526 Front St."|"Fairplay"|"CO"|"fairplay@ofacolorado.com"|"(720) 302-3671"|39.22379|-106.001853|"""Park"""
"Denver"|"3867 Tennyson St."|"Denver"|"CO"|"nwdenver@ofacolorado.com"|"(720) 296-3447"|39.7703316|-105.0442084|"""Denver"""
"Greeley"|"3050 67th Ave, Unit 101"|"Greeley"|"CO"|"westgreeley@ofacolorado.com"|"(970) 497-6140"|40.3880363|-104.7859803|"""Weld"""
"Telluride"|"129 W Colorado Ave"|"Telluride"|"CO"|"telluride@ofacolorado.com"|"(970) 215-0614"|37.9372307|-107.8110836|"""San Miguel"""
"Fort Collins"|"1205B W. Elizabeth St."|"Fort Collins"|"CO"|"ramsforobama@ofacolorado.com"|"(970) 749-9352"|40.574277|-105.097126|"""Larimer"""
"Parker"|"10841 S. Crossroads Dr., Unit 15"|"Parker"|"CO"|"parker@ofacolorado.com"||39.519503|-104.7664451|"""Douglas"""
"Denver"|"7150 Leetsdale Dr., Unit 316"|"Denver"|"CO"|"lowry@ofacolorado.com"||39.698384|-104.904275|"""Denver"""
"Denver"|"3980 Quebec St. Unit 160"|"Denver"|"CO"|"stapleton@ofacolorado.com"||39.772612|-104.8995599|"""Denver"""
"Castle Rock"|"116 S. Wilcox Street"|"Castle Rock"|"CO"|"castlerock@ofacolorado.com"|"(720) 206-6252"|39.3678727|-104.8608403|"""Douglas"""
"Denver"|"2442 S. University Blvd"|"Denver"|"CO"|"du@ofacolorado.com"||39.6721239|-104.958992|"""Denver"""
"Westminster"|"8020 Federal Blvd, Unit #5"|"Westminster"|"CO"|"westminster@ofacolorado.com"||39.8425155|-105.0244383|"""Adams"""
"Arvada"|"12324-B W. 64th Ave"|"Arvada"|"CO"|"westarvada@ofacolorado.com"||39.8126741|-105.1356411|"""Jefferson"""
"East Hartford"|"144 Main Street, Unit E"|"East Hartford"|"CT"|"agardner@barackobama.com"|"(860) 249-3658"|41.7344422|-72.6265986|"""Hartford"""
"Bridgeport"|"360 Fairfield Avenue, 2nd Floor"|"Bridgeport"|"CT"|"tkolasanoye@barackobama.com"|"(203) 893-1205"|41.1779698|-73.1935225|"""Fairfield"""
"New Castle"|"19 E. Commons Blvd., 2nd Floor"|"New Castle"|"DE"|"Appollos.baker@barackobama.com"|"(302) 328-9036"|39.6931185|-75.6004802|"""New Castle"""
"Washington"|"430 South Capitol Street, SE"|"Washington"|"DC"|"dc@barackobama.com"|"(202) 479-5172"|38.8839521|-77.0084218|"""District of Columbia District"""
"Tampa"|"1702 N. 14th St.  (La Avenida Republica de Cuba)"|"Tampa"|"FL"|"bmounce@ofafl.com"|"(813) 443-8288"|27.9668313|-82.4441989|"""Hillsborough"""
"Miami Beach"|"801 Arthur Godfrey Rd, 3rd Floor"|"Miami Beach"|"FL"|"ccialeo@ofafl.com"|"(305) 934-2897"|25.8140473|-80.1335882|"""Miami-Dade"""
"Orlando"|"1516 Colonial Dr Suite 203"|"Orlando"|"FL"|"aruiz@ofafl.com"|"(407) 412-4586"|28.5531215|-81.3609446|"""Orange"""
"Miami Gardens"|"4797 NW 183rd St"|"Miami Gardens"|"FL"|"dfrazier@ofafl.com"|"(305) 790-2510"|25.9397009|-80.280075|"""Miami-Dade"""
"Lauderhill"|"3300 Inverrary Blvd Suite 300"|"Lauderhill"|"FL"|"cesperias@ofafl.com"|"(954) 552-4339"|26.166042|-80.226474|"""Broward"""
"Boca Raton"|"6020 N Federal Highway Suite 2"|"Boca Raton"|"FL"|"jdecarvalho@ofafl.com"|"(561) 962-5023"|26.403115|-80.0757689|"""Palm Beach"""
"St Petersburg"|"951 Central Ave, Suite A"|"St Petersburg"|"FL"|"tlaney@ofafl.com"|"(727) 697-7632"|27.7712048|-82.6479128|"""Pinellas"""
"Tallahassee"|"541 N Monroe St"|"Tallahassee"|"FL"|"acrombie@ofafl.com"|"(850) 459-9096"|30.4477901|-84.2806767|"""Leon"""
"Jacksonville"|"608 N. Julia Street"|"Jacksonville"|"FL"|"ahooks@ofafl.com"|"(904) 616-7289"|30.3318822|-81.660561|"""Duval"""
"Daytona Beach"|"1020 W. International Speedway Blvd, Suite 201, 2nd floor"|"Daytona Beach"|"FL"|"kparker@ofafl.com"|"(954) 683-6271"|29.202569|-81.042941|"""Volusia"""
"Sarasota"|"305 Gillespie Avenue"|"Sarasota"|"FL"|"ejames@ofafl.com"|"(941) 302-5032"|27.339136|-82.532575|"""Sarasota"""
"Pembroke Pines"|"2104 N. Flamingo Road"|"Pembroke Pines"|"FL"|"dha@ofafl.com"|"(954) 647-2789"|26.0274028|-80.3125755|"""Broward"""
"Melbourne"|"907 E Strawbridge Avenue, 1st Floor"|"Melbourne"|"FL"|"dmcmullen@ofafl.com"|"(321) 514-5707"|28.0793609|-80.6056338|"""Brevard"""
"Ft. Myers"|"1716 Fowler Street"|"Ft. Myers"|"FL"|"csaling@ofafl.com"|"(239) 851-2779"|26.6442542|-81.86462|"""Lee"""
"Riviera Beach"|"3520 Broadway"|"Riviera Beach"|"FL"|"dblythers@ofafl.com"|"(561) 339-7829"|26.7906142|-80.0543357|"""Palm Beach"""
"Gainesville"|"315 SE 2nd Avenue"|"Gainesville"|"FL"|"eikene@ofafl.com"|"(352) 610-2198"|29.650178|-82.3217696|"""Alachua"""
"Pinecrest"|"11315 S. Dixie Highway"|"Pinecrest"|"FL"|"zczajkowski@ofafl.com"|"(305) 905-1872"|25.6654216|-80.3240096|"""Miami-Dade"""
"Palm Beach Gardens"|"4550 Donald Ross Road Suite 110"|"Palm Beach Gardens"|"FL"|"mhochhauser@ofafl.com"|"(813) 528-0274"|26.88164|-80.10612|"""Palm Beach"""
"Pensacola"|"2415 N Pace Blvd"|"Pensacola"|"FL"|"lwillie@ofafl.com"|"(850) 238-6377"|30.438155|-87.240611|"""Escambia"""
"Pompano Beach"|"950 N. Federal Highway Suite #201"|"Pompano Beach"|"FL"|"apeerman@ofafl.com"|"(772) 607-2974"|26.2417691|-80.1020154|"""Broward"""
"Naples"|"5286 Golden Gate Parkway, 2"|"Naples"|"FL"|"adobson@ofafl.com"|"(239) 304-6285"|26.1748669|-81.7139041|"""Collier"""
"Wilton Manors"|"612 NE 26th Street"|"Wilton Manors"|"FL"|"stsou@ofafl.com"|"(561) 329-3481"|26.1591896|-80.1377136|"""Broward"""
"Panama City"|"1106 Harrison Ave #B"|"Panama City"|"FL"|"fcampbell@ofafl.com"|"(850) 899-3057"|30.1681|-85.659858|"""Bay"""
"Riverview"|"11215 Bloomingdale Ave"|"Riverview"|"FL"|"jtan@ofafl.com"|"(813) 720-5667"|27.8935792|-82.3156002|"""Hillsborough"""
"Florida City"|"1380 North Krome Ave #101"|"Florida City"|"FL"|"ecebert@ofafl.com"|"(305) 793-8767"|25.4603829|-80.4779273|"""Miami-Dade"""
"Sanford"|"1426 W. 1st Street"|"Sanford"|"FL"|"jfernandes@ofafl.com"|"(407) 619-6681"|28.8117149|-81.2829789|"""Seminole"""
"Kissimmee"|"1004 Royal Street"|"Kissimmee"|"FL"|"mpadilla@ofafl.com"|"(407) 496-4794"|28.301109|-81.400841|"""Osceola"""
"Quincy"|"17 E Jefferson St"|"Quincy"|"FL"|"pwatson@ofafl.com"|"(904) 616-9468"|30.5880661|-84.5764249|"""Gadsden"""
"Wesley Chapel"|"29141 Chapel Park Dr"|"Wesley Chapel"|"FL"|"bthompson@ofafl.com"|"(352) 213-0487"|28.2403279|-82.3321149|"""Pasco"""
"Santa Rosa Beach"|"2890 Hwy 98 West, Unit 4-5"|"Santa Rosa Beach"|"FL"|"jabel@ofafl.com"|"(850) 708-5016"|30.373708|-86.214739|"""Walton"""
"Ocala"|"21 N. Magnolia Ave"|"Ocala"|"FL"|"ADeitchler@ofafl.com"|"(352) 610-2199"|29.187709|-82.136719|"""Marion"""
"Largo"|"225 West Bay Dr, E4"|"Largo"|"FL"|"mjay-dixon@ofafl.com"|"(727) 560-9863"|27.916596|-82.7904773|"""Pinellas"""
"Port St. Lucie"|"1060 SE Port St. Lucie Boulevard"|"Port St. Lucie"|"FL"|"mbhardwaj@ofafl.com"|"(772) 607-2520"|27.2717148|-80.3176886|"""St. Lucie"""
"Lake City"|"200 N Marion Ave"|"Lake City"|"FL"|"jklein@ofafl.com"|"(352) 610-2137"|30.2093051|-82.6375003|"""Columbia"""
"West Palm Beach"|"3008 S. Dixie Hwy"|"West Palm Beach"|"FL"|"JJasrasaria@ofafl.com"|"(561) 427-9803"|26.686421|-80.054095|"""Palm Beach"""
"Cocoa"|"1521 N. Cocoa Blvd"|"Cocoa"|"FL"|"elaurent@ofafl.com"|"(321) 506-3445"|28.3829399|-80.7419579|"""Brevard"""
"Orange City"|"157 N. Industrial Dr"|"Orange City"|"FL"|||28.9371|-81.2986456|"""Volusia"""
"Palm Coast"|"4882 Palm Coast Parkway"|"Palm Coast"|"FL"|"aprickett@ofafl.com"|"(904) 327-5738"|29.55382|-81.249321|"""Flagler"""
"Fort Lauderdale"|"1033 Sistrunk Boulevard, Suite 103"|"Fort Lauderdale"|"FL"|"ynasser@ofafl.com"|"(954) 647-2613"|26.1288627|-80.1804187|"""Broward"""
"Clearwater"|"1820 Drew St"|"Clearwater"|"FL"|"cnugent@ofafl.com"|"(561) 307-6799"|27.9679038|-82.762013|"""Pinellas"""
"Orlando"|"3151 N Alafaya Trl, Suite 102"|"Orlando"|"FL"|"mpadilla@ofafl.com"|"(407) 496-4794"|28.583768|-81.2064743|"""Orange"""
"Tampa"|"3105 W. Waters AVe, Suite 315"|"Tampa"|"FL"|"amontes@ofafl.com"|"(813) 503-6859"|28.025735|-82.493019|"""Hillsborough"""
"Miami"|"2141 SW 1st St, Suite 204-205"|"Miami"|"FL"|"ccialeo@ofafl.com"|"(305) 934-2897"|25.771785|-80.230042|"""Miami-Dade"""
"Immokalee"|"201 N 1st St"|"Immokalee"|"FL"|"evilardell@ofafl.com"|"(239) 404-9187"|26.420614|-81.417694|"""Collier"""
"Bradenton"|"918 West 14th St"|"Bradenton"|"FL"|"mprull@ofafl.com"|"(941) 243-1027"|27.4912611|-82.575263|"""Manatee"""
"New Port Richey"|"5647 Pine St"|"New Port Richey"|"FL"|"bthompson@ofafl.com"|"(352) 213-0487"|28.237498|-82.7206093|"""Pasco"""
"Gainesville"|"2727 NW 43rd St, #4B"|"Gainesville"|"FL"|"shealy@ofafl.com"|"(352) 215-8938"|29.6781071|-82.3880632|"""Alachua"""
"Spring Hill"|"5170 Mariner Blvd"|"Spring Hill"|"FL"|"bthompson@ofafl.com"|"(352) 213-0487"|28.5027548|-82.5243045|"""Hernando"""
"Hollywood"|"2001 Tyler St, Unit #8"|"Hollywood"|"FL"|"cmetzger@ofafl.com"|"(786) 763-1560"|26.012525|-80.14712|"""Broward"""
"Jacksonville"|"11655 Central Parkway, 305"|"Jacksonville"|"FL"|"cswiridowsky@ofafl.com"|"(904) 305-6670"|30.2810464|-81.522283|"""Duval"""
"Cape Coral"|"3108 Del Prado Blvd South, #6"|"Cape Coral"|"FL"|"ecarlson@ofafl.com"|"(239) 691-7423"|26.593981|-81.942072|"""Lee"""
"Fort Pierce"|"300 South US Hwy 1"|"Fort Pierce"|"FL"|"mmarcela@ofafl.com"|"(772) 607-1266"|27.444764|-80.3255889|"""St Lucie"""
"Orlando"|"9521 South Orange Blossom Trail, #104"|"Orlando"|"FL"|"nklein@ofafl.com"|"(407) 267-5219"|28.420909|-81.403471|"""Orange"""
"Sun City Center"|"129 South Pebble Beach Blvd, 100"|"Sun City Center"|"FL"|"mprull@ofafl.com"|"(813) 527-1107"|27.7116349|-82.3519476|"""Hillsborough"""
"Jacksonville"|"1680 Dunn Ave, Suite 38"|"Jacksonville"|"FL"|"cloper@ofafl.com"|"(904) 629-2095"|30.433535|-81.676534|"""Duval"""
"Tallahassee"|"704 W Madison St"|"Tallahassee"|"FL"|"maldana@ofafl.com"|"(904) 382-8450"|30.4367207|-84.2935283|"""Leon"""
"Boynton Beach"|"3200 S. Congress, Suite 100"|"Boynton Beach"|"FL"|"gabbott@ofafl.com"|"(561) 962-5182"|26.495671|-80.089395|"""Palm Beach"""
"St. Augustine"|"Depot Plaza 3149 Ponce De Leon Blvd, Suite 1"|"St. Augustine"|"FL"|"aprickett@ofafl.com"|"(904) 327-5738"|29.9206883|-81.3253493|"""St Johns"""
"Lakeland"|"2254 E Edgewood Dr"|"Lakeland"|"FL"|"kanderson@ofafl.com"|"(863) 940-0058"|28.0132105|-81.9164974|"""Polk"""
"Summerfield"|"15437 Highway 441, Unit C"|"Summerfield"|"FL"|"kferguson@ofafl.com"|"(352) 213-2689"|28.997884|-81.998195|"""Marion"""
"Pinellas Park"|"6537 Park Blvd"|"Pinellas Park"|"FL"|"MForte-Namuj@ofaFL.com"|"(727) 612-5867"|27.839223|-82.7271293|"""Pinellas"""
"Pine Hills"|"6900 Silver Star Rd, #118"|"Pine Hills"|"FL"|"tmatthews@ofafl.com"|"(407) 913-0517"|28.577143|-81.474475|"""Orange"""
"Palm City"|"4125 SW Martin Hwy, Suite 15"|"Palm City"|"FL"|"anickles@ofafl.com"|"(561) 866-7138"|27.162496|-80.309118|"""Martin"""
"Miami"|"3250 Grand Ave - First Floor"|"Miami"|"FL"|"ccialeo@ofafl.com"|"(305) 934-2897"|25.727688|-80.246017|"""Miami-Dade"""
"Titusville"|"319 South Washington Ave, 1st Floor"|"Titusville"|"FL"|"aaiello@ofafl.com"|"(321) 537-0684"|28.6119775|-80.8074542|"""Brevard"""
"Casselberry"|"470 State Road 436"|"Casselberry"|"FL"|"ccarrier@ofafl.com"|"(407) 446-3089"|28.6541493|-81.3315993|"""Seminole"""
"Fort Myers"|"8750 Gladiolus Dr, #12"|"Fort Myers"|"FL"|"oturner@ofafl.com"|"(239) 691-7423"|26.5216141|-81.9000137|"""Lee"""
"Wellington"|"12785 W. Forest Hill Boulevard, 8C"|"Wellington"|"FL"|"mlubin@ofafl.com"|"(561) 401-2733"|26.6746017|-80.2480357|"""Palm Beach"""
"Hialeah"|"419 W 49th St, Suite #104"|"Hialeah"|"FL"|"sjackson@ofafl.com"|"(239) 304-6285"|25.8667092|-80.2914815|"""Miami-Dade"""
"Kissimmee"|"2970 Pleasant Hill Rd"|"Kissimmee"|"FL"|"mpdailla@ofafl.com"|"(407) 496-4794"|28.2130147|-81.441009|"""Osceola"""
"Apopka"|"2591 West Orange Blossom Trail"|"Apopka"|"FL"|"NMcHugh@ofafl.com"|"(407) 432-5208"|28.6927|-81.552807|"""Orange"""
"Temple Terrace"|"5246 East Fowler, Suite 4"|"Temple Terrace"|"FL"|"jveloso@ofafl.com"|"(813) 528-6723"|28.0545036|-82.3959119|"""Hillsborough"""
"Port Charlotte"|"1032 Tamiami Trail, Unit #4"|"Port Charlotte"|"FL"|"nruge@ofafl.com"|"(941) 243-1028"|27.0175293|-82.1534632|"""Charlotte"""
"Coral Springs"|"7665 W Sample Rd, Suite #7665"|"Coral Springs"|"FL"|"kfarmer@ofafl.com"|"(954) 648-9505"|26.2721725|-80.2280075|"""Broward"""
"Miami"|"275 NE 18th St  STE 104"|"Miami"|"FL"|"kcook@ofafl.com"|"(305) 301-9120"|25.79395|-80.189672|"""Miami-Dade"""
"Belle Glade"|"606 S. Main St"|"Belle Glade"|"FL"|"mclermont@ofafl.com"|"(561) 373-2871"|26.680034|-80.6698569|"""Palm Beach"""
"Winter Park"|"200 N Denning Dr, Suite #5"|"Winter Park"|"FL"|"sroberts@ofafl.com"|"(407) 459-0523"|28.5983195|-81.3609251|"""Orange"""
"Miami"|"7356 SW 117 Ave"|"Miami"|"FL"|"DNavarro@ofafl.com"|"(305) 798-4333"|25.699469|-80.3822593|"""Miami-Dade"""
"Venice"|"251 S Tamiami Tr"|"Venice"|"FL"|"meagan@ofafl.com"|"(941) 484-2437"|27.0973398|-82.4443035|"""Sarasota"""
"Vero Beach"|"2205 14th Ave, Suite 208"|"Vero Beach"|"FL"|"afreeman@ofafl.com"|"(772) 607-1617"|27.641344|-80.399613|"""Indian River"""
"DeLand"|"113 West Wisconsin Ave"|"DeLand"|"FL"|"kparker@ofafl.com"|"(904) 616-6097"|29.0316948|-81.3040697|"""Volusia"""
"Miramar"|"6750 Pembroke Rd."|"Miramar"|"FL"|"mhardy@ofafl.com"|"(954) 254-7138"|25.9936416|-80.2793477|"""Broward"""
"St. Petersburg"|"2108 34th St S"|"St. Petersburg"|"FL"|"tlaney@ofafl.com"|"(727) 698-7912"|27.749461|-82.6792649|"""Pinellas"""
"Lehigh Acres"|"411 Lee Blvd"|"Lehigh Acres"|"FL"|"vniglia@ofafl.com"|"(239) 810-3928"|26.6116579|-81.642405|"""Lee"""
"Tampa"|"3825 Henderson Blvd, Suite #405"|"Tampa"|"FL"|"bmounce@ofafl.com"|"(813) 720-5637"|27.932692|-82.507217|"""Hillsborough"""
"Key Largo"|"Cedar Towers, 99353 Overseas Hwy #2"|"Key Largo"|"FL"|||25.091624|-80.442638|"""Monroe"""
"North Miami"|"666 NE 125th St, Suite 232"|"North Miami"|"FL"|"SAndrieux@ofafl.com"|"(305) 781-9892"|25.8902549|-80.1849473|"""Miami-Dade"""
"Lake Worth"|"609B Lake Ave"|"Lake Worth"|"FL"|"FPereira@ofaFL.com"|"(561) 373-5865"|26.615557|-80.054805|"""Palm Beach"""
"Jacksonville"|"6317 Arlington Road"|"Jacksonville"|"FL"|"stutson@ofafl.com"|"(904) 314-7665"|30.3335963|-81.5940446|"""Duval"""
"Merritt Island"|"120 Venetian Way, Suite 19"|"Merritt Island"|"FL"|"kpaterson@ofafl.com"|"(321) 431-2163"|28.4028652|-80.706801|"""Brevard"""
"Naples"|"801 Anchor Rode Dr, #203"|"Naples"|"FL"|"adobson@ofafl.com"|"(239) 434-1888"|26.188838|-81.801625|"""Collier"""
"Miami"|"647 NW 62nd St, Bay #5"|"Miami"|"FL"|"smontoya@ofafl.com"|"(239) 595-5663"|25.833319|-80.1832655|"""Miami-Dade"""
"Tamarac"|"5467 N State Rd 7"|"Tamarac"|"FL"|"jpenalosa@ofafl.com"|"(954) 646-3050"|26.189523|-80.204462|"""Broward"""
"Safety Harbor"|"701 Enterprise Rd, Suite 504"|"Safety Harbor"|"FL"|"cnugent@ofafl.com"|"(561) 307-6799"|28.0132026|-82.6965246|"""Pinellas"""
"Eustis"|"12 E Magnolia Ave"|"Eustis"|"FL"|"gmcgurn@ofafl.com"|"(352) 213-7493"|28.8535467|-81.6853598|"""Lake"""
"Lake Park"|"921 Park Ave"|"Lake Park"|"FL"|"blevine@ofafl.com"|"(561) 236-9947"|26.7987916|-80.0714229|"""Palm Beach"""
"Pensacola"|"2829 W. Michigan Ave"|"Pensacola"|"FL"|"JJohnson @ofafl.com"|"(850) 637-0675"|30.4605318|-87.2897491|"""Escambia"""
"South Miami"|"6001 SW 70th ST, Unit C102"|"South Miami"|"FL"|"ggarcia@ofafl.com"|"(305) 905-5103"|25.706495|-80.291288|"""Miami-Dade"""
"Oakland"|"2 West Oakland Ave."|"Oakland"|"FL"|"abeck@ofafl.com"|"(407) 409-3167"|28.555263|-81.6282339|"""Orange"""
"Jacksonville"|"6357 103rd St"|"Jacksonville"|"FL"|"dgonzalez@ofafl.com"|"(904) 608-4612"|30.2484039|-81.7463187|"""Duval"""
"Sebring"|"215 US 27 South, Unit 6"|"Sebring"|"FL"|"tjones@ofafl.com"|"(772) 971-8405"|27.4814142|-81.478025|"""Highlands"""
"Tampa"|"4228 N. Armenia Ave"|"Tampa"|"FL"|"chernandez@ofafl.com"|"(813) 856-6964"|27.979807|-82.485147|"""Hillsborough"""
"North Miami Beach"|"15158 NE 6th Ave"|"North Miami Beach"|"FL"|"sandrieux@ofafl.com"|"(305) 781-9892"|25.9147254|-80.1876114|"""Miami-Dade"""
"Plant City"|"103 E Martin Luther King Blvd"|"Plant City"|"FL"|"jveloso@ofafl.com"|"(813) 528-6723"|28.0143569|-82.123158|"""Hillsborough"""
"Atlanta"|"171 Auburn Ave"|"Atlanta"|"GA"|"rmcdaniel@barackobama.com"|"(404) 956-3143"|33.7554151|-84.3817924|"""Fulton"""
"Savannah"|"102 Oglethorpe Professional Court, suite 5"|"Savannah"|"GA"|||32.0034107|-81.1092326|"""Chatham"""
"Valdosta"|"103 Wayne Ave, Suite A"|"Valdosta"|"GA"|||30.8575|-83.2895999|"""Lowndes"""
"Carrolton"|"302F North Park Street"|"Carrolton"|"GA"|||33.583023|-85.078573|"""Carroll"""
"Honolulu"|"1050 Ala Moana Blvd, Suite 2150"|"Honolulu"|"HI"|"hawaii@barackobama.com"|"(808) 596-2980"|21.2945788|-157.8558646|"""Honolulu"""
"Meridian"|"943 W. Overland Rd., Suite 126"|"Meridian"|"ID"|"LWhitney@barackobama.com"|"(208) 867-6159"|43.588439|-116.404992|"""Ada"""
"Lombard"|"1000-7 Rohlwing Road"|"Lombard"|"IL"|"Illinois@barackobama.com"||41.907948|-88.036579|"""DuPage"""
"Chicago"|"218 S Wabash St, Suite 500"|"Chicago"|"IL"|"Illinois@barackobama.com"||41.8789211|-87.6261224|"""Cook"""
"Rockford"|"119 N Church St, #100"|"Rockford"|"IL"|"Illinois@barackobama.com"||42.2722674|-89.0953142|"""Winnebago"""
"Hazel Crest"|"3310 W. 183rd St"|"Hazel Crest"|"IL"|||41.5571896|-87.6968816|"""Cook"""
"Indianapolis"|"111 East 16th Street, Suite #1"|"Indianapolis"|"IN"|"indianapolis@ofain.com"|"(317) 361-0490"|39.7882427|-86.1549414|"""Marion"""
"Sioux City"|"4106 Morningside Ave"|"Sioux City"|"IA"|"siouxcity@ofaiowa.com"|"(712) 330-2885"|42.4706692|-96.3543161|"""Woodbury"""
"Cedar Rapids"|"2857 Mt Vernon Rd SE"|"Cedar Rapids"|"IA"|"cedarrapids@ofaiowa.com"|"(319) 363-1535"|41.976382|-91.624179|"""Linn"""
"Iowa City"|"321 Market St, Suite 106"|"Iowa City"|"IA"|"iowacity@ofaiowa.com"|"(319) 610-5899"|41.663254|-91.530873|"""Johnson"""
"Council Bluffs"|"1851 Madison Ave, Suite 200"|"Council Bluffs"|"IA"|"councilbluffs@ofaiowa.com"|"(712) 223-5940"|41.240995|-95.8192219|"""Benton"""
"Waterloo"|"512 Mulberry Street"|"Waterloo"|"IA"|"waterloo@ofaiowa.com"|"(712) 869-9209"|42.500181|-92.3347013|"""Black Hawk"""
"Des Moines"|"2932 Ingersoll Ave"|"Des Moines"|"IA"|"desmoines@ofaiowa.com"|"(515) 689-4190"|41.585636|-93.658103|"""Polk"""
"Dubuque"|"3250 Kennedy Circle, Suite 6"|"Dubuque"|"IA"|"dubuque@ofaiowa.com"|"(563) 639-9120"|42.5054977|-90.7229211|"""Dubuque"""
"Davenport"|"1706 Brady Street, Suite 205"|"Davenport"|"IA"|"davenport@ofaiowa.com"|"(563) 349-4287"|41.537368|-90.574804|"""Scott"""
"Mason City"|"219 North Federal"|"Mason City"|"IA"|"masoncity@ofaiowa.com"|"(319) 693-6233"|43.1542699|-93.200654|"""Cerro Gordo"""
"Ames"|"413 Northwestern Ave #103"|"Ames"|"IA"|"ames@ofaiowa.com"|"(515) 689-7910"|42.025158|-93.621604|"""Story"""
"Clinton"|"224 22nd Place"|"Clinton"|"IA"|"clinton@ofaiowa.com"|"(563) 663-7128"|41.8243088|-90.2107851|"""Clinton"""
"Fort Dodge"|"1014 Central Avenue"|"Fort Dodge"|"IA"|"fortdodge@ofaiowa.com"|"(515) 422-3469"|42.505673|-94.184246|"""Webster"""
"Marshalltown"|"26 E Main St"|"Marshalltown"|"IA"|"marshalltown@ofaiowa.com"|"(515) 710-7841"|42.0491642|-92.9122512|"""Marshall"""
"Muscatine"|"1012 E 9th St"|"Muscatine"|"IA"|"muscatine@ofaiowa.com"|"(563) 676-3417"|41.4323679|-91.040763|"""Muscatine"""
"Ottumwa"|"224 E 2nd St"|"Ottumwa"|"IA"|"ottumwa@ofaiowa.com"|"(641) 954-2795"|41.0173133|-92.4100572|"""Wapello"""
"Burlington"|"900 Osborn St"|"Burlington"|"IA"|"burlington@ofaiowa.com"|"(563) 663-7158"|40.8171222|-91.1126354|"""Des Moines"""
"Sioux City"|"520 14th Street"|"Sioux City"|"IA"|"siouxcity2@ofaiowa.com"|"(712) 355-2053"|42.5050048|-96.4047387|"""Woodbury"""
"Cresco"|"218 N Elm"|"Cresco"|"IA"|"cresco@ofaiowa.com"|"(515) 306-9140"|43.3739254|-92.1162777|"""Howard"""
"Marion"|"119 Marion Blvd"|"Marion"|"IA"|"marion@ofaiowa.com"|"(319) 471-1831"|42.0316029|-91.6111138|"""Linn"""
"Grinnell"|"806 5th Ave., #1"|"Grinnell"|"IA"|"grinnell@ofaiowa.com"|"(515) 306-6396"|41.7447137|-92.7252816|"""Poweshiek"""
"Denison"|"46 N. Main St"|"Denison"|"IA"|"denison@ofaiowa.com"||42.0173381|-95.3552786|"""Crawford"""
"Boone"|"818 8th St"|"Boone"|"IA"|"boone@ofaiowa.com"|"(515) 664-3928"|42.0637995|-93.8807953|"""Boone"""
"Oskaloosa"|"201 High Ave East"|"Oskaloosa"|"IA"|"oskaloosa@ofaiowa.com"|"(515) 528-5177"|41.2953336|-92.6438475|"""Mahaska"""
"Clarinda"|"119 East Main St"|"Clarinda"|"IA"|"clarinda@ofaiowa.com"|"(515) 528-0825"|40.7382768|-95.0375919|"""Page"""
"Winterset"|"108 East Court"|"Winterset"|"IA"|"winterset@ofaiowa.com"|"(515) 707-8942"|41.3343559|-94.0129693|"""Madison"""
"West Liberty"|"111 W. 3rd St"|"West Liberty"|"IA"|"westliberty@ofaiowa.com"|"(563) 381-7441"|41.5699928|-91.2639786|"""Muscatine"""
"Iowa Falls"|"623 Washington Ave"|"Iowa Falls"|"IA"|"iowafalls@ofaiowa.com"|"(515) 528-4890"|42.519346|-93.265248|"""Hardin"""
"Spencer"|"301 W Grand Ave"|"Spencer"|"IA"|"spencer@ofaiowa.com"|"(712) 212-6279"|43.140504|-95.144991|"""Clay"""
"Washington"|"225 West Main St"|"Washington"|"IA"|"washington@ofaiowa.com"|"(515) 664-3170"|41.2994283|-91.6933471|"""Washington"""
"Cedar Rapids"|"4358 16th Ave SW"|"Cedar Rapids"|"IA"|"cedarrapids2@ofaiowa.com"|"(515) 402-0901"|41.963768|-91.72904|"""Linn"""
"Perry"|"1218 Second Street"|"Perry"|"IA"|"perry@ofaiowa.com"||41.8401912|-94.1051598|"""Dallas"""
"Des Moines"|"3839 Merle Hay Road, Suite 250"|"Des Moines"|"IA"|"merlehay@ofaiowa.com"|"(515) 494-9348"|41.6308099|-93.697183|"""Des Moines"""
"Independence"|"322 1st St, E"|"Independence"|"IA"|"independence@ofaiowa.com"|"(515) 537-7175"|42.4687478|-91.8911479|"""Buchanan"""
"Coralville"|"2781 Oakdale Blvd #1"|"Coralville"|"IA"|"coralville@ofaiowa.com"|"(319) 693-6232"|41.7094267|-91.6109498|"""Johnson"""
"Ankeny"|"315 SW Maple Street , Unit E"|"Ankeny"|"IA"|"ankeny@ofaiowa.com"|"(515) 494-1608"|41.729138|-93.608018|"""Polk"""
"Algona"|"1914 Highway 18 East"|"Algona"|"IA"|"algona@ofaiowa.com"||43.0827917|-94.2140173|"""Kossuth"""
"Fort Madison"|"827 Avenue H"|"Fort Madison"|"IA"|"fortmadison@ofaiowa.com"|"(515) 473-5493"|40.6299303|-91.3122105|"""Lee"""
"Mt. Pleasant"|"124 N. Main Street"|"Mt. Pleasant"|"IA"|"mtpleasant@ofaiowa.com"|"(515) 333-3784"|40.9668164|-91.5531549|"""Henry"""
"Newton"|"108 1st Street N"|"Newton"|"IA"|"newton@ofaiowa.com"|"(515) 661-1873"|41.6998698|-93.053698|"""Jasper"""
"Maquoketa"|"107 S. Main St"|"Maquoketa"|"IA"|"maquoketa@ofaiowa.com"|"(515) 528-6981"|42.0689685|-90.665537|"""Jackson"""
"Indianola"|"701 W. Second Ave"|"Indianola"|"IA"|"indianola@ofaiowa.com"|"(515) 306-4673"|41.358102|-93.569232|"""Warren"""
"Waukee"|"225 NE Dartmoor Dr."|"Waukee"|"IA"|"waukee@ofaiowa.com"|"(515) 710-5164"|41.617882|-93.865502|"""Dallas"""
"Columbus Junction"|"118 N. Walnut"|"Columbus Junction"|"IA"|"columbusjct@ofaiowa.com"|"(563) 381-7441"|41.2801056|-91.3607187|"""Louisa"""
"Altoona"|"204 8th St. SE"|"Altoona"|"IA"|"altoona@ofaiowa.com"|"(515) 473-5012"|41.643497|-93.4625329|"""Polk"""
"Elkader"|"114 Gunder Road"|"Elkader"|"IA"|"elkader@ofaiowa.com"|"(515) 710-0113"|42.8842664|-91.4096871|"""Clayton"""
"Creston"|"212 W Montgomery"|"Creston"|"IA"|"creston@ofaiowa.com"|"(515) 473-5899"|41.0585321|-94.3628548|"""Union"""
"Fairfield"|"59 E Broadway"|"Fairfield"|"IA"|"fairfield@ofaiowa.com"|"(515) 306-1298"|41.0076236|-91.9627508|"""Jefferson"""
"West Des Moines"|"3330 Westown Parkway Suite 15"|"West Des Moines"|"IA"|"westdsm@ofaiowa.com"|"(515) 689-7975"|41.593915|-93.7492089|"""Polk"""
"Oelwein"|"6 South Frederick"|"Oelwein"|"IA"|"oelwein@ofaiowa.com"|"(515) 421-5876"|42.6783255|-91.9133765|"""Fayette"""
"Charles City"|"220 North Main St"|"Charles City"|"IA"|||43.0679727|-92.678247|"""Floyd"""
"Decorah"|"105 W Water St"|"Decorah"|"IA"|||43.303906|-91.78624|"""Winneshiek"""
"Carroll"|"813 US Highway 30 W"|"Carroll"|"IA"|||42.0698125|-94.8759364|"""Carroll"""
"Knoxville"|"112 S 2nd St"|"Knoxville"|"IA"|||41.3184947|-93.0976017|"""Marion"""
"Vinton"|"905 D Ave"|"Vinton"|"IA"|||42.1629028|-92.0290885|"""Benton"""
"Bettendorf"|"1630 State St, #3"|"Bettendorf"|"IA"|||41.525523|-90.509185|"""Scott"""
"Cedar Falls"|"4302 University Ave"|"Cedar Falls"|"IA"|||42.5064421|-92.4091766|"""Black Hawk"""
"Centerville"|"314 N.12th ST"|"Centerville"|"IA"|||40.734324|-92.8751451|"""Appanoose"""
"Waverly"|"2020 W Bremer Ave"|"Waverly"|"IA"|||42.725934|-92.496197|"""Bremer"""
"Anamosa"|"200 W Main St."|"Anamosa"|"IA"|||42.1082376|-91.2868239|"""Jones"""
"Tipton"|"112 W 5th Street"|"Tipton"|"IA"|||41.770013|-91.128657|"""Cedar"""
"Des Moines"|"3505 SW 9th"|"Des Moines"|"IA"||"(515) 708-4263"|41.552383|-93.6253459|"""Polk"""
"North Liberty"|"70 Circle Dr, Unit D"|"North Liberty"|"IA"|||41.74956|-91.6037149|"""Johnson"""
"Storm Lake"|"813 Flindt Dr"|"Storm Lake"|"IA"|||42.6467432|-95.1912222|"""Buena Vista"""
"Toledo"|"114 E High St"|"Toledo"|"IA"|||41.9956172|-92.5780952|"""Tama"""
"Keokuk"|"401 Main St Ste 3"|"Keokuk"|"IA"|||40.3953185|-91.3826064|"""Lee"""
"Des Moines"|"2307 Hubbell Ave"|"Des Moines"|"IA"||"(515) 822-6994"|41.6040835|-93.5740378|"""Polk"""
"Prairie Village"|"4500 W 90th Terrace, Suite 201"|"Prairie Village"|"KS"|"anegrete@barackobama.com"|"(913) 608-4632"|38.965326|-94.638034|"""Johnson"""
"Louisville"|"617 Baxter Ave."|"Louisville"|"KY"|"OFAKY@barackobama.com"|"(502) 276-3886"|38.245887|-85.7282029|"""Jefferson"""
"New Orleans"|"4221 South Carrollton Ave. B"|"New Orleans"|"LA"|"pmccollough@barackobama.com"|"(352) 246-7717"|29.9699533|-90.1055973|"""Orleans"""
"Portland"|"533 Forest Ave, 2nd Floor"|"Portland"|"ME"|"sveneziano@ofamaine.com"|"(207) 404-6156"|43.6681093|-70.2797233|"""Cumberland"""
"Bangor"|"205 Exchange Street"|"Bangor"|"ME"|"mpayne@ofamaine.com"|"(207) 404-6159"|44.8017017|-68.7689047|"""Penobscot"""
"Kensington"|"3750 University Blvd. W."|"Kensington"|"MD"|"OFAMD@barackobama.com"|"(240) 242-5750"|39.0321799|-77.073758|"""Montgomery"""
"Boston"|"77 Summer St. 10th Floor"|"Boston"|"MA"|"cnilsson@barackobama.com"|"(617) 939-0800"|42.3541219|-71.0587875|"""Suffolk"""
"Holyoke"|"4 Open Square Suite 218"|"Holyoke"|"MA"|"solshuff@barackobama.com"|"(413) 242-4437"|42.206835|-72.6039571|"""Hampden"""
"Detroit"|"2727 Second Avenue, Suite 200"|"Detroit"|"MI"|"Detroit@ofamichigan.com"|"(313) 330-9498"|42.339906|-83.062053|"""Wayne"""
"Ann Arbor"|"455 E. Eisenhower Pkwy, Suite 65"|"Ann Arbor"|"MI"|"AnnArbor@ofamichigan.com"|"(248) 797-8139"|42.244754|-83.740797|"""Washtenaw"""
"Pontiac"|"4 North Saginaw"|"Pontiac"|"MI"|"Pontiac@ofamichigan.com"|"(248) 219-4798"|42.6369169|-83.291414|"""Oakland"""
"Kalamazoo"|"3244 S. Westnedge Avenue"|"Kalamazoo"|"MI"|"Kalamazoo@ofamichigan.com"|"(269) 409-1244"|42.2586239|-85.5896096|"""Kalamazoo"""
"Dearborn"|"13742 Michigan Avenue"|"Dearborn"|"MI"|"Dearborn@ofamichigan.com"|"(313) 303-2932"|42.321672|-83.177677|"""Wayne"""
"Lansing"|"2722 E. Michigan Avenue, Ste. 103"|"Lansing"|"MI"|"Lansing@ofamichigan.com"|"(517) 703-6787"|42.7332091|-84.5128801|"""Ingham"""
"Sterling Heights"|"37378 Van Dyke Avenue"|"Sterling Heights"|"MI"|"SterlingHeights@ofamichigan.com"|"(248) 797-2289"|42.5688417|-83.0296094|"""Macomb"""
"Flint"|"4400 S. Saginaw, Suite 1370"|"Flint"|"MI"|"Flint@ofamichigan.com"|"(810) 584-5690"|42.983244|-83.6761596|"""Genesee"""
"Saginaw"|"122 North Michigan Avenue"|"Saginaw"|"MI"|"Saginaw@ofamichigan.com"||43.4181639|-83.9635438|"""Saginaw"""
"Royal Oak"|"811 N. Main Street"|"Royal Oak"|"MI"|"RoyalOak@OFAMichigan.com"||42.495949|-83.1447359|"""Oakland"""
"Grand Rapids"|"345 Fuller Avenue, NE, Suite 1"|"Grand Rapids"|"MI"|"GrandRapids@ofamichigan.com"|"(616) 818-9582"|42.9692549|-85.640124|"""Kent"""
"Warren"|"8322 E 12 Mile"|"Warren"|"MI"|"warren@ofamichigan.com"||42.506349|-83.023488|"""Macomb"""
"Traverse City"|"703 Rose Street"|"Traverse City"|"MI"|"traversecity@ofamichigan.com"||44.7551718|-85.6003697|"""Grand Traverse"""
"Ann Arbor"|"325 Braun Court"|"Ann Arbor"|"MI"|"aadowntown@ofamichigan.com"|"(248) 797-7859"|42.28385|-83.7473111|"""Washtenaw"""
"Marquette"|"832 W. Washington Street"|"Marquette"|"MI"|"marquette@ofamichigan.com"||46.5458062|-87.4103218|"""Marquette"""
"Mt. Pleasant"|"122 North Kinney Street"|"Mt. Pleasant"|"MI"|"mtpleasant@ofamichigan.com"||43.6046829|-84.7706006|"""Isabella"""
"Alpena"|"2205 US 23 S, Suite 126"|"Alpena"|"MI"|"alpena@ofamichigan.com"||45.0931561|-83.4573344|"""Alpena"""
"Brownstown"|"18708 Telegraph Rd."|"Brownstown"|"MI"|"brownstown@ofamichigan.com"|"(734) 775-0590"|42.169319|-83.269411|"""Wayne"""
"Muskegon"|"490 W. Western Ave"|"Muskegon"|"MI"|"muskegon@ofamichigan.com"||43.2338039|-86.2557753|"""Muskegon"""
"Wyandotte"|"3509 Biddle Avenue"|"Wyandotte"|"MI"|"wyandotte@ofamichigan.com"|"(734) 286-4685"|42.197707|-83.1512182|"""Wayne"""
"Jackson"|"500 W. Michigan Avenue, Suite 1"|"Jackson"|"MI"|"jackson@ofamichigan.com"||42.247874|-84.416485|"""Jackson"""
"Battle Creek"|"596 W. Columbia"|"Battle Creek"|"MI"|"battlecreek@ofamichigan.com"|"(269) 366-9848"|42.2985378|-85.2110659|"""Calhoun"""
"Benton Harbor"|"209 E. Main Street"|"Benton Harbor"|"MI"|"bentonharbor@ofamichigan.com"||42.11677|-86.453413|"""Berrien"""
"Grosse Pointe Park"|"14929-14931 Charlevoix"|"Grosse Pointe Park"|"MI"|"grossepointe@ofamichigan.com"||42.384991|-82.945198|"""Wayne"""
"Ypsilanti"|"61 N. Huron"|"Ypsilanti"|"MI"|"Ypsilanti@ofamichigan.com"||42.2420072|-83.6132442|"""Washtenaw"""
"Southfield"|"29207 Southfield Road"|"Southfield"|"MI"|"Southfield@ofamichigan.com"||42.5042835|-83.2226559|"""Oakland"""
"Detroit"|"20225 Livernois Avenue"|"Detroit"|"MI"|"NWDetroit@ofamichigan.com"||42.4435463|-83.1421399|"""Wayne"""
"Detroit"|"2810 W. Vernor Highway"|"Detroit"|"MI"|"SWDetroit@ofamichigan.com"||42.326101|-83.081554|"""Wayne"""
"Minneapolis"|"2722 University Ave SE"|"Minneapolis"|"MN"|"minneapolis@ofamn.com"|"(612) 244-7872"|44.9721688|-93.2183105|"""Hennepin"""
"Hopkins"|"1007 Main St"|"Hopkins"|"MN"|"hopkins@ofamn.com"|"(952) 221-1770"|44.924652|-93.413053|"""Hennepin"""
"Duluth"|"210 W Superior St"|"Duluth"|"MN"|"duluth@ofamn.com"|"(218) 256-4896"|46.7847156|-92.1010697|"""St. Louis"""
"Saint Paul"|"920A Selby Ave"|"Saint Paul"|"MN"|"stpaul@ofamn.com"|"(651) 492-0280"|44.946352|-93.139357|"""Ramsey"""
"Rochester"|"1107 7th St NW"|"Rochester"|"MN"||"(507) 848-3221"|44.031549|-92.4798455|"""Olmsted"""
"Eagan"|"1380 Duckwood Dr, #103"|"Eagan"|"MN"||"(651) 492-0163"|44.827042|-93.165283|"""Dakota"""
"Minneapolis"|"1505 West Broadway Ave"|"Minneapolis"|"MN"||"(612) 412-7881"|44.999349|-93.299599|"""Hennepin"""
"Coon Rapids"|"9696 University Avenue Northwest"|"Coon Rapids"|"MN"||"(763) 786-9391"|45.1458521|-93.2673603|"""Anoka"""
"Virginia"|"506 2nd Ave W"|"Virginia"|"MN"||"(218) 409-5224"|47.5196345|-92.5329344|"""St. Louis"""
"Oakdale"|"6993 35th St N"|"Oakdale"|"MN"||"(651) 242-2124"|44.998418|-92.964949|"""Washington"""
"Mankato"|"110 E. Liberty St."|"Mankato"|"MN"||"(507) 340-6068"|44.1616599|-94.0080918|"""Blue Earth"""
"St Cloud"|"14 5th Ave S, #300"|"St. Cloud"|"MN"|||45.5607213|-94.1575699|"""Stearns"""
"Jackson"|"832 North Congress Street"|"Jackson"|"MS"|"kcollins@barackobama.com"|"(601) 863-6729"|32.3101672|-90.1807784|"""Hinds"""
"St. Louis"|"1925 Washington Avenue"|"St. Louis"|"MO"|"stloffice@ofamissouri.com"|"(314) 884-0394"|38.633947|-90.2072636|"""St Louis"""
"Kansas City"|"3600 Broadway St #108"|"Kansas City"|"MO"|"kcoffice@ofamissouri.com"|"(816) 787-1589"|39.061876|-94.591659|"""Jackson"""
"Bozeman"|"234 E. Babcock St., Suite 1"|"Bozeman"|"MT"||"(406) 231-5154"|45.6781813|-111.0330698|"""Gallatin"""
"Missoula"|"800 Kensington LL3"|"Missourla"|"MT"|||46.853568|-114.010239|"""Missoula"""
"Omaha"|"347 N. 76th St"|"Omaha"|"NE"|"zburgin@barackobama.com"|"(402) 913-4148"|41.2598153|-96.0314765|"""Douglas"""
"Reno"|"1465 Terminal Way, Suite 1"|"Reno"|"NV"|"lcoffee@ofanv.com"|"(775) 870-1512"|39.5104761|-119.7780372|"""Washoe"""
"Henderson"|"2925 Green Valley Parkway , E"|"Henderson"|"NV"|"ssteelman@ofanv.com"|"(702) 461-2536"|36.07592|-115.08275|"""Clark"""
"Las Vegas"|"3440 W Cheyenne Ave, Suite 300"|"Las Vegas"|"NV"|"amounce@ofanv.com"|"(702) 290-6137"|36.2177548|-115.1855162|"""Clark"""
"Las Vegas"|"861 N Nellis, Suite 5"|"Las Vegas"|"NV"|"swilliams@ofanv.com"|"(702) 580-4877"|36.1802306|-115.0623318|"""Clark"""
"Las Vegas"|"3230 East Charleston, Suite 111"|"Las Vegas"|"NV"|"ajenkins@ofanv.com"|"(702) 335-9263"|36.1598394|-115.1017591|"""Clark"""
"Las Vegas"|"7469 W. Lake Mead Blvd, suite 170"|"Las Vegas"|"NV"|"bgomez@ofanv.com"|"(702) 768-9232"|36.1957389|-115.2563965|"""Clark"""
"Reno"|"141 E. Pueblo, Suite B"|"Reno"|"NV"|"lcoffee@ofanv.com"|"(775) 870-1512"|39.511169|-119.804068|"""Washoe"""
"Henderson"|"1720 Horizon Ridge, #120"|"Henderson"|"NV"|"cadams@ofanv.com"|"(702) 461-2536"|36.0114001|-115.0629258|"""Clark"""
"Las Vegas"|"4845 S Fort Apache Rd, suite D-1"|"Las Vegas"|"NV"|"gmatute@ofanv.com"|"(702) 524-8891"|36.1013946|-115.2978076|"""Clark"""
"Las Vegas"|"6030  W Windmill, #D"|"Las Vegas"|"NV"|"gmatute@ofanv.com"|"(702) 524-8891"|36.0421766|-115.2248443|"""Clark"""
"Las Vegas"|"8010 W. Sahara Ave, Suite 235"|"Las Vegas"|"NV"|"btobias@ofanv.com"|"(702) 480-8476"|36.1450364|-115.2658129|"""Clark"""
"Las Vegas"|"3870 E Flamingo, A-8"|"Las Vegas"|"NV"|"sschneidman@ofanv.com"|"(702) 335-9263"|36.115254|-115.08876|"""Clark"""
"Las Vegas"|"860 S. Rancho Drive, Ste. 7"|"Las Vegas"|"NV"|"amounce@ofanv.com"|"(702) 738-2833"|36.16098|-115.1729598|"""Clark"""
"Henderson"|"400 College Drive, Suite H"|"Henderson"|"NV"|"cadams@ofanv.com"||36.0198279|-114.96246|"""Clark"""
"North Las Vegas"|"5135 Camino al Norte, Ste. 230"|"North Las Vegas"|"NV"|"mragent@ofanv.com"|"(702) 506-5127"|36.253659|-115.1519001|"""Clark"""
"Las Vegas"|"1350 E. Flamingo, Ste. 20"|"Las Vegas"|"NV"|"sschneidman@ofanv.com"||36.1147508|-115.1790314|"""Clark"""
"Las Vegas"|"5061 N. Rainbow, Suite #150"|"Las Vegas"|"NV"|"tmegown@ofanv.com"|"(702) 595-3935"|36.2536797|-115.2424773|"""Clark"""
"Las Vegas"|"5105 E. Sahara Ave., Suite 150"|"Las Vegas"|"NV"|"ajenkins@ofanv.com"||36.1445847|-115.0617017|"""Clark"""
"North Las Vegas"|"4955 E. Craig Road, Ste. 15"|"North Las Vegas"|"NV"|"swilliams@ofanv.com"|"(702) 768-9250"|36.240074|-115.065381|"""Clark"""
"Las Vegas"|"7920 W Tropical Pkwy, #120"|"Las Vegas"|"NV"|"bgomez@ofanv.com"||36.2716351|-115.2646604|"""Clark"""
"Las Vegas"|"2466 E. Desert Inn, Suite A"|"Las Vegas"|"NV"|"ajenkins@ofanv.com"||36.130876|-115.117073|"""Clark"""
"Las Vegas"|"9890 S. Maryland Parkway, Suite 203"|"Las Vegas"|"NV"|"ssteelman@ofanv.com"||36.010495|-115.1366441|"""Clark"""
"Reno"|"2395 Tampa St, Suite A"|"Reno"|"NV"|"msalazar@ofanv.com"|"(775) 333-0220"|39.550338|-119.803235|"""Washoe"""
"Pahrump"|"1201 S. Hwy 160, Suite 112"|"Pahrump"|"NV"|"gmatute@ofanv.com"||36.202088|-115.975462|"""Nye"""
"Sparks"|"834 Victorian Ave, Suite 204"|"Sparks"|"NV"|"adecall@ofanv.com"||39.5349718|-119.7538228|"""Washoe"""
"Las Vegas"|"1055 E Tropicana, Suite 270"|"Las Vegas"|"NV"|||36.1007556|-115.1404703|"""Clark"""
"Portsmouth"|"125 Brewery Lane"|"Portsmouth"|"NH"|"Portsmouth@ofanh.com"|"(603) 380-4699"|43.0687749|-70.7710149|"""Rockingham"""
"Dover"|"660 Central Avenue, Unit 102"|"Dover"|"NH"|"Dover@ofanh.com"|"(603) 617-6565"|43.2058856|-70.8754559|"""Strafford"""
"Nashua"|"97 Main Street"|"Nashua"|"NH"|"Nashua@ofanh.com"|"(603) 204-7093"|42.7623281|-71.4661313|"""Hillsborough"""
"Lebanon"|"85 Mechanic Street, Unit 140"|"Lebanon"|"NH"|"Lebanon@ofanh.com"|"(603) 398-2034"|43.6396793|-72.2567256|"""Grafton"""
"Keene"|"294 West Street, Unit 3"|"Keene"|"NH"|"Keene@ofanh.com"|"(603) 313-0635"|42.9324828|-72.2879706|"""Cheshire"""
"Laconia"|"571 Main Street"|"Laconia"|"NH"|"laconia@ofanh.com"|"(603) 455-1086"|43.5277663|-71.4698721|"""Belknap"""
"Exeter"|"134 Front Street"|"Exeter"|"NH"|"Exeter@ofanh.com"|"(603) 583-2363"|42.9780835|-70.9598694|"""Rockingham"""
"Conway"|"6 Main Street, Unit A"|"Conway"|"NH"|"Conway@ofanh.com"|"(603) 662-8132"|43.9788151|-71.1189168|"""Carroll"""
"Salem"|"202 Main Street, Unit G-1"|"Salem"|"NH"|"Salem@ofanh.com"|"(603) 204-7461"|42.783472|-71.2171988|"""Rockingham"""
"Manchester"|"228 Maple Street, 3rd Floor"|"Manchester"|"NH"|"Manchester@ofanh.com"|"(603) 486-7355"|42.981255|-71.4533984|"""Hillsborough"""
"Claremont"|"149 Pleasant St"|"Claremont"|"NH"|"Claremont@ofanh.com"|"(603) 477-7534"|43.367613|-72.3410993|"""Sullivan"""
"Peterborough"|"76 Grove Street"|"Peterborough"|"NH"|"Peterborough@ofanh.com"|"(603) 562-7143"|42.872306|-71.9501335|"""Hillsborough"""
"Plymouth"|"612 Tenney Mountain Highway"|"Plymouth"|"NH"|"Plymouth@ofanh.com"|"(603) 254-6202"|43.7708172|-71.7567768|"""Grafton"""
"Berlin"|"217 Main Street"|"Berlin"|"NH"|"Berlin@ofanh.com"|"(603) 326-9328"|44.4708064|-71.1791287|"""Coos"""
"Littleton"|"32 Main Street, 104"|"Littleton"|"NH"|"Littleton@ofanh.com"|"(603) 326-9329"|44.3064296|-71.7716437|"""Grafton"""
"Hampton"|"150 High Street"|"Hampton"|"NH"|"Hampton@ofanh.com"|"(603) 848-0668"|42.9396953|-70.8307937|"""Rockingham"""
"Rochester"|"63 Hanson Street"|"Rochester"|"NH"|"Rochester@ofanh.com"|"(603) 486-9130"|43.3048079|-70.9740767|"""Strafford"""
"Epping"|"285 Calef Highway, Unit 12B"|"Epping"|"NH"|"Epping@ofanh.com"|"(603) 486-9131"|43.0439636|-71.0611507|"""Rockingham"""
"Milford"|"54 Nashua St"|"Milford"|"NH"|"Milford@ofanh.com"|"(603) 204-7648"|42.8355424|-71.6479804|"""Hillsborough"""
"Concord"|"15 Green St."|"Concord"|"NH"|"Concord@ofanh.com"|"(603) 848-2097"|43.204288|-71.5395379|"""Merrimack"""
"Derry"|"127 Rockingham Road, Unit 13"|"Derry"|"NH"|"Derry@ofanh.com"|"(603) 531-0612"|42.8758812|-71.2994869|"""Rockingham"""
"Durham"|"56 Dover Road"|"Durham"|"NH"|"Durham@ofanh.com"|"(603) 531-0664"|43.1373937|-70.9116289|"""Strafford"""
"East Brunswick"|"251 Route 18 South Suite 1007"|"East Brunswick"|"NJ"|"newjersey@barackobama.com"|"(973) 619-4761"|40.4621254|-74.4057451|"""Middlesex"""
"Santa Fe"|"1420 Cerrillos Road"|"Santa Fe"|"NM"|"SantaFe@ofanm.com"|"(505) 301-9670"|35.6698134|-105.9655718|"""Santa Fe"""
"Albuquerque"|"115 Montclaire Dr. SE"|"Albuquerque"|"NM"|"HQ@ofanm.com"|"(505) 349-0968"|35.0784645|-106.5989076|"""Bernalillo"""
"Las Cruces"|"151 S. Solano Suite D"|"Las Cruces"|"NM"|"LasCruces@ofanm.com"|"(505) 358-5384"|32.312199|-106.7649107|"""Doña Ana"""
"Albuquerque"|"3809 Atrisco Drive NW Suite A"|"Albuquerque"|"NM"|"ABQWestside@ofanm.com"|"(505) 340-5846"|35.1263167|-106.7062136|"""Bernalillo"""
"Rio Rancho"|"2218 Southern Blvd SE Suite 2 &amp; 3"|"Rio Rancho"|"NM"|"RioRancho@ofanm.com"|"(505) 358-0306"|35.241104|-106.691317|"""Sandoval"""
"Las Vegas"|"624 University Avenue Suite 100"|"Las Vegas"|"NM"|"ofanm.lasvegas@gmail.com"|"(505) 946-7193"|35.5956815|-105.216628|"""San Miguel"""
"Cedar Crest"|"12220 North Highway STE# 2"|"Cedar Crest"|"NM"||"(505) 246-6317"|35.1303523|-106.3662106|"""Bernalillo"""
"Bernalillo"|"240 S Camino Del Pueblo, Suite E"|"Bernalillo"|"NM"||"(505) 358-0306"|35.3157834|-106.5459205|"""Sandoval"""
"Taos"|"1523 Paseo Del Pueblo Sur"|"Taos"|"NM"|||36.3707501|-105.5961075|"""Taos"""
"Albuquerque"|"7301 Indian School Road NE Suite A"|"Albuquerque"|"NM"||"(505) 999-1942"|35.1018902|-106.5621711|"""Bernalillo"""
"Albuquerque"|"4250 Coors Blvd SW Unit A"|"Albuquerque"|"NM"|"lgutierrez@ofanm.com"||35.0142412|-106.715714|"""Bernalillo"""
"Anthony"|"880 N. Anthony Drive Unit 10"|"Anthony"|"NM"|||32.0094292|-106.6064283|"""Doña Ana"""
"Gallup"|"809 North Highway 491"|"Gallup"|"NM"|||35.5339461|-108.7590879|"""McKinley"""
"Syracuse"|"222 Teall Ave Suite 101"|"Syracuse"|"NY"||"(646) 535-8326"|43.0511655|-76.1217197|"""Onondaga"""
"New York"|"520 Eighth Ave, 20th Floor"|"New York"|"NY"||"(646) 535-8326"|40.753617|-73.991904|"""New York"""
"Mamaroneck"|"931A  Boston Post Road"|"Mamaroneck"|"NY"|"scheemalapati@ofanewyork.com"||40.9536511|-73.7234681|"""Westchester"""
"Kingston"|"30 John Street"|"Kingston"|"NY"|"jabelson@ofanewyork.com"|"(845) 399-1379"|41.9339463|-74.0188113|"""Ulster"""
"Buffalo"|"1645 Hertel Ave"|"Buffalo"|"NY"|||42.947449|-78.847155|"""Erie"""
"Raleigh"|"130 East Morgan"|"Raleigh"|"NC"|"kwashington@ofanc.com"|"(919) 727-6887"|35.7794481|-78.6370688|"""Wake"""
"Greensboro"|"229 North Greene St"|"Greensboro"|"NC"|"jrhau@ofanc.com"|"(336) 848-6285"|36.074581|-79.7917669|"""Guilford"""
"Fayetteville"|"894-B Elm Street"|"Fayetteville"|"NC"|"LCarolina@ofanc.com"|"(919) 534-5831"|35.075577|-78.925093|"""Cumberland"""
"Durham"|"401 East Lakewood"|"Durham"|"NC"|"Jwartel@ofanc.com"|"(919) 840-8156"|35.987775|-78.899964|"""Durham"""
"Wilmington"|"4401 Wrightsville Avenue"|"Wilmington"|"NC"|"wrinehart@ofanc.com"|"(910) 578-8523"|34.21516|-77.888287|"""New Hanover"""
"Chapel Hill"|"505 B West Franklin Street"|"Chapel Hill"|"NC"|"gregg.ross@ofanc.com"|"(919) 923-4124"|35.909418|-79.063638|"""Orange"""
"Asheville"|"230 Hilliard Avenue"|"Asheville"|"NC"|"kanderson@ofanc.com"|"(828) 290-0681"|35.590916|-82.558232|"""Buncombe"""
"Winston Salem"|"633 W. 4th Street, Suite 110"|"Winston Salem"|"NC"|"pkrishnappa@ofanc.com"|"(336) 997-1355"|36.098116|-80.250936|"""Forsyth"""
"Cary"|"237 W Chatham Street"|"Cary"|"NC"|"asingal@ofanc.com"|"(919) 886-5657"|35.7868718|-78.7847048|"""Wake"""
"Charlotte"|"301 East 9th Street, suite 160"|"Charlotte"|"NC"|"anagatani@ofanc.com"|"(704) 469-0490"|35.2292347|-80.8354748|"""Mecklenburg"""
"Goldsboro"|"138 N Center St"|"Goldsboro"|"NC"|"rshelbia@ofanc.com"|"(252) 649-9819"|35.384037|-77.996289|"""Wayne"""
"Lumberton"|"128 W 5th Street"|"Lumberton"|"NC"|"SAdamsczyk@ofaNC.com"|"(910) 546-3507"|34.619655|-79.00997|"""Robeson"""
"Greenville"|"214 A E. Arlington St"|"Greenville"|"NC"|"aroche@ofanc.com"|"(252) 626-6239"|35.5879369|-77.374565|"""Pitt"""
"Charlotte"|"2750 E WT Harris Blvd Suite 100"|"Charlotte"|"NC"|"cshallow@ofanc.com"|"(980) 229-2661"|35.277683|-80.728452|"""Mecklenburg"""
"Statesville"|"233 E Front Street"|"Statesville"|"NC"|"mvanarnam@ofanc.com"|"(980) 333-3850"|35.784701|-80.883865|"""Iredell"""
"Rocky Mount"|"2509 Sunset Ave"|"Rocky Mount"|"NC"|"hgoff@ofanc.com"|"(252) 366-5920"|35.960972|-77.827571|"""Nash"""
"High Point"|"652 N Main St"|"High Point"|"NC"|"grobinson@ofanc.com"|"(252) 378-8234"|35.9622033|-80.0095501|"""Guilford"""
"Gastonia"|"1626 East Franklin Blvd, Suite B"|"Gastonia"|"NC"|"jemerson@ofanc.com"|"(980) 254-7406"|35.262379|-81.151116|"""Gaston"""
"Concord"|"528 Lake Concord Rd"|"Concord"|"NC"|"hfarnsworth@ofanc.com"|"(980) 253-2729"|35.4441591|-80.6001358|"""Cabarrus"""
"Burlington"|"122 A N Main St"|"Burlington"|"NC"|"jstopka@ofanc.com"|"(336) 862-3914"|36.095117|-79.4345656|"""Alamance"""
"Indian Trail"|"553 Indian Trail Road, Suite C"|"Indian Trail"|"NC"|"mwaters@ofanc.com"|"(980) 328-8257"|35.0686514|-80.6768882|"""Union"""
"Charlotte"|"1560 West Blvd., Suite B"|"Charlotte"|"NC"|"ablue@ofanc.com"|"(980) 833-6976"|35.2163001|-80.8833112|"""Mecklenburg"""
"Raleigh"|"2609 Atlantic Ave"|"Raleigh"|"NC"|"elocke@ofanc.com"|"(919) 727-6887"|35.818763|-78.615913|"""Wake"""
"Wilson"|"207 Tarboro St. W"|"Wilson"|"NC"|"KTurner@ofanc.com"|"(252) 646-7718"|35.724584|-77.912749|"""Wilson"""
"Henderson"|"219 S Garnett St"|"Henderson"|"NC"|"cdouglas@ofanc.com"|"(919) 480-7928"|36.3260875|-78.4041714|"""Vance"""
"Supply"|"1420 Old Ocean Highway"|"Supply"|"NC"|"rsturgill@ofanc.com"|"(910) 754-8880"|34.0376243|-78.2260241|"""Brunswick"""
"Louisburg"|"108 E. Nash Street"|"Louisburg"|"NC"|"lmarciniak@ofanc.com"|"(919) 890-0427"|36.0989216|-78.300566|"""Franklin"""
"Salisbury"|"1411 W Innes Street"|"Salisbury"|"NC"|"ipaysour@ofanc.com"|"(704) 123-4546"|35.681075|-80.482026|"""Rowan"""
"Hendersonville"|"1507 E Haywood Road"|"Hendersonville"|"NC"|"JValdez@ofanc.com"|"(828) 318-5386"|35.3273686|-82.4685246|"""Henderson"""
"Garner"|"148 Donmoor Court"|"Garner"|"NC"|"ACameron@ofanc.com"|"(919) 809-4597"|35.7257251|-78.6429286|"""Wake"""
"Winston Salem"|"8100 North Point Blvd  Suite N"|"Winston Salem"|"NC"|"RStephens@ofaNC.com"|"(336) 655-9936"|36.1476929|-80.264429|"""Forsyth"""
"Lexington"|"408-A National Blvd., Suite A"|"Lexington"|"NC"|"MMcDermott@ofaNC.com"|"(336) 425-4683"|35.8278524|-80.2732764|"""Davidson"""
"Jacksonville"|"99 Village Drive Suite 6"|"Jacksonville"|"NC"|"AGuberman@ofanc.com"|"(910) 691-9209"|34.7475534|-77.3766435|"""Onslow"""
"New Bern"|"1208 Pollock Street"|"New Bern"|"NC"|"wrikard@ofanc.com"|"(252) 626-6894"|35.106625|-77.0535573|"""Craven"""
"Kinston"|"1500 W Vernon"|"Kinston"|"NC"|"lmiller@ofanc.com"|"(252) 227-3143"|35.270715|-77.601731|"""Lenoir"""
"Oxford"|"100 Broad St"|"Oxford"|"NC"|"gkneapler@ofanc.com"|"(919) 564-6876"|36.3106022|-78.5911193|"""Granville"""
"Sanford"|"143 Charlotte Ave, Suite 101"|"Sanford"|"NC"|"SAnantharaman@ofaNC.com"|"(919) 561-7476"|35.4820848|-79.1763174|"""Lee"""
"Hickory"|"806 12th Street SW"|"Hickory"|"NC"|"scohen@ofanc.com"|"(980) 298-1905"|35.7234677|-81.3609213|"""Catawba"""
"Shelby"|"236 S. Lafayette"|"Shelby"|"NC"|"rrobbalaa@ofanc.com"|"(980) 622-6371"|35.2896472|-81.5406141|"""Cleveland"""
"Charlotte"|"3704 Central Ave, Eastway Crossing Shopping Center"|"Charlotte"|"NC"|"ctaylor@ofanc.com"|"(980) 298-0729"|35.215193|-80.78195|"""Mecklenburg"""
"Roanoke Rapids"|"1620 E 10th Street, Suite 144"|"Roanoke Rapids"|"NC"|"bburch@ofanc.com"|"(252) 646-7282"|36.4419169|-77.641978|"""Halifax"""
"Durham"|"1418 Avondale Dr, Unit 10"|"Durham"|"NC"|"oburston@ofanc.com"|"(919) 381-2522"|36.006382|-78.8841659|"""Durham"""
"Windsor"|"101 South King St."|"Windsor"|"NC"|"HGoff@ofaNC.com"|"(252) 801-5420"|35.9982612|-76.9464896|"""Bertie"""
"Smithfield"|"822 N. Brightleaf Blvd"|"Smithfield"|"NC"|"JDavis@ofanc.com"|"(910) 508-9254"|35.5152147|-78.3269087|"""Johnston"""
"Boone"|"130 North Depot Street"|"Boone"|"NC"|"ZHalpern@ofanc.com"|"(828) 246-5456"|36.219076|-81.683549|"""Watauga"""
"Hillsborough"|"101 North Scotswood Boulevard, Suite K"|"Hillsborough"|"NC"|"apugh@ofanc.com"|"(919) 699-8518"|36.0833639|-79.0800475|"""Orange"""
"Elizabeth City"|"305 S Hughes Blvd"|"Elizabeth City"|"NC"|"jwalker@ofanc.com"|"(252) 529-7292"|36.2994|-76.2422|"""Pasquotank"""
"Rockingham"|"908 E. Broad Avenue"|"Rockingham"|"NC"|"jhappy@ofanc.com"|"(910) 386-9334"|34.927023|-79.7584|"""Richmond"""
"Charlotte"|"1805 Sardis Rd North, #110"|"Charlotte"|"NC"|"mlieberman@ofanc.com"|"(980) 226-7059"|35.14127|-80.736534|"""Mecklenburg"""
"Knightdale"|"861 Old Knight Road, Suite 107"|"Knightdale"|"NC"|"JDuval@ofanc.com"|"(919) 690-5704"|35.800391|-78.475644|"""Wake"""
"Warsaw"|"206 North Front Street"|"Warsaw"|"NC"|"SSigmon@ofanc.com"|"(910) 228-4434"|35.0000952|-78.0939709|"""Duplin"""
"Huntersville"|"14229 W. Reese Boulevard, Suite B-3"|"Huntersville"|"NC"|"sanderson@ofanc.com"|"(980) 228-0583"|35.4081649|-80.863367|"""Mecklenburg"""
"Fuquay-Varina"|"405 Broad Street"|"Fuquay-Varina"|"NC"|"cellis@ofanc.com"|"(919) 906-4311"|35.5939874|-78.7950898|"""Wake"""
"Fargo"|"720 Main Ave, Suite 203"|"Fargo"|"ND"|"klocket@barackobama.com"|"(701) 541-4154"|46.8744491|-96.7907544|"""Cass"""
"Cleveland"|"13100 Shaker Square Suite 5"|"Cleveland"|"OH"|"info@ofaoh.com"|"(614) 636-2262"|41.483096|-81.591241|"""Cuyahoga"""
"Chillicothe"|"149 W. Water St."|"Chillicothe"|"OH"|"info@ofaoh.com"|"(614) 636-2262"|39.3352198|-82.9871392|"""Ross"""
"Columbus"|"1973 E. Dublin-Granville Rd."|"Columbus"|"OH"|"info@ofaoh.com"|"(614) 636-2262"|40.086414|-82.9650938|"""Franklin"""
"Dayton"|"411 E. Fifth St."|"Dayton"|"OH"|"info@ofaoh.com"|"(614) 636-2262"|39.7572751|-84.1845158|"""Montgomery"""
"New Philadelphia"|"123 W. High Ave."|"New Philadelphia"|"OH"|"info@ofaoh.com"|"(614) 636-2262"|40.4898037|-81.4462975|"""Tuscarawas"""
"Lima"|"226 N Main Street"|"Lima"|"OH"|"info@ofaoh.com"|"(614) 636-2262"|40.742243|-84.10444|"""Allen"""
"Middletown"|"1028 Central Ave."|"Middletown"|"OH"|"info@ofaoh.com"|"(614) 636-2262"|39.5166927|-84.4041536|"""Butler"""
"Athens"|"8 North Court St., Suite 302"|"Athens"|"OH"|"info@ofaoh.com"|"(614) 636-2262"|39.3294045|-82.101146|"""Athens"""
"Toledo"|"119 N. Ontario St."|"Toledo"|"OH"|"info@ofaoh.com"|"(614) 636-2262"|41.651387|-83.540844|"""Lucas"""
"Cincinnati"|"2718 Woodburn Ave."|"Cincinnati"|"OH"|"info@ofaoh.com"|"(614) 636-2262"|39.1284853|-84.4774997|"""Hamilton"""
"Mentor"|"7537 Mentor Ave., Suite 20"|"Mentor"|"OH"|"info@ofaoh.com"|"(614) 636-2262"|41.65645|-81.372442|"""Lake"""
"Parma"|"5734 Ridge Rd."|"Parma"|"OH"|"info@ofaoh.com"|"(614) 636-2262"|41.406492|-81.7346747|"""Cuyahoga"""
"Beavercreek"|"1337 Hanes Rd."|"Beavercreek"|"OH"|"info@ofaoh.com"|"(614) 636-2262"|39.728127|-84.047169|"""Greene"""
"Youngstown"|"25 W Federal Plaza, Ste. 1"|"Youngstown"|"OH"|"info@ofaoh.com"|"(330) 604-0023"|41.0998899|-80.6489151|"""Mahoning"""
"Cincinnati"|"1244 W Kemper Rd."|"Cincinnati"|"OH"|"info@ofaoh.com"|"(614) 636-2262"|39.288989|-84.526375|"""Hamilton"""
"Warren"|"155 S. Park Ave."|"Warren"|"OH"|"info@ofaoh.com"|"(614) 636-2262"|41.2352104|-80.8174911|"""Trumbull"""
"Bowling Green"|"123 E. Court St."|"Bowling Green"|"OH"|"info@ofaoh.com"|"(567) 231-3055"|41.376197|-83.649441|"""Wood"""
"Columbus"|"1570 N. High St., Suite C10"|"Columbus"|"OH"|"info@ofaoh.com"|"(614) 636-2262"|39.9940656|-83.0063894|"""Franklin"""
"Mason"|"108 W. Main St."|"Mason"|"OH"|"info@ofaoh.com"|"(614) 636-2262"|39.360582|-84.309545|"""Warren"""
"Wooster"|"135 N. Bever St."|"Wooster"|"OH"|"info@ofaoh.com"|"(614) 636-2262"|40.7992364|-81.9369407|"""Wayne"""
"Troy"|"6 E. Main St."|"Troy"|"OH"|"info@ofaoh.com"|"(614) 636-2262"|40.039109|-84.202792|"""Miami"""
"Cincinnati"|"3722 Harrison Ave."|"Cincinnati"|"OH"|"info@ofaoh.com"|"(614) 636-2262"|39.1566453|-84.6121408|"""Hamilton"""
"Heath"|"568 Hebron Rd."|"Heath"|"OH"|"info@ofaoh.com"|"(614) 636-2262"|40.0373306|-82.4296275|"""Licking"""
"Steubenville"|"104 S. 4th St."|"Steubenville"|"OH"|"info@ofaoh.com"|"(614) 636-2262"|40.3599056|-80.6151045|"""Jefferson"""
"Defiance"|"608 Clinton St."|"Defiance"|"OH"|"info@ofaoh.com"|"(614) 636-2262"|41.28371|-84.364486|"""Defiance"""
"Portsmouth"|"1018 Chillicothe St."|"Portsmouth"|"OH"|"info@ofaoh.com"|"(614) 636-2262"|38.7388|-82.996|"""Scioto"""
"Zanesville"|"3935 Northpointe Dr."|"Zanesville"|"OH"|"info@ofaoh.com"|"(614) 636-2262"|40.0017287|-82.0264514|"""Muskingum"""
"Columbus"|"3741 E. Broad St."|"Columbus"|"OH"|"info@ofaoh.com"|"(614) 636-2262"|39.9728961|-82.9011821|"""Franklin"""
"Sylvania"|"5834 Monroe St., Suite O"|"Sylvania"|"OH"|"info@ofaoh.com"|"(567) 202-5721"|41.7123848|-83.6814392|"""Lucas"""
"Mansfield"|"24 S. Park St."|"Mansfield"|"OH"|"info@ofaoh.com"|"(614) 636-2262"|40.7581215|-82.5149341|"""Richland"""
"Ashtabula"|"2205 Lake Ave., Unit #8"|"Ashtabula"|"OH"|"info@ofaoh.com"|"(614) 636-2262"|41.8825267|-80.7989977|"""Ashtabula"""
"Canton"|"131 Cleveland Ave. SW"|"Canton"|"OH"|"info@ofaoh.com"|"(614) 636-2262"|40.7983937|-81.376686|"""Stark"""
"Springfield"|"1214 N. Bechtle Ave."|"Springfield"|"OH"|"info@ofaoh.com"|"(614) 636-2262"|39.9407412|-83.8359075|"""Clark"""
"Lorain"|"668 Broadway Ave."|"Lorain"|"OH"|"info@ofaoh.com"|"(614) 636-2262"|41.4650319|-82.1748173|"""Lorain"""
"Sandusky"|"218 Columbus Ave."|"Sandusky"|"OH"|"info@ofaoh.com"|"(614) 636-2262"|41.4558139|-82.7114502|"""Erie"""
"Twinsburg"|"7995 Darrow Rd., Suite #3"|"Twinsburg"|"OH"|"info@ofaoh.com"|"(614) 636-2262"|41.2836732|-81.4404493|"""Summit"""
"Boardman"|"4300 Market St."|"Boardman"|"OH"|"info@ofaoh.com"|"(614) 636-2262"|41.055831|-80.663248|"""Mahoning"""
"Hilliard"|"4143 Main St."|"Hilliard"|"OH"|"info@ofaoh.com"|"(614) 636-2262"|40.0364137|-83.15692|"""Franklin"""
"Niles"|"6 Youngstown Warren Rd."|"Niles"|"OH"|"info@ofaoh.com"|"(614) 636-2262"|41.182138|-80.7176575|"""Trumbull"""
"Kenton"|"101 1/2 N. Detroit St."|"Kenton"|"OH"|"info@ofaoh.com"|"(614) 636-2262"|40.64735|-83.60951|"""Hardin"""
"Springboro"|"843 W. Central Ave."|"Springboro"|"OH"|"info@ofaoh.com"|"(614) 636-2262"|39.5625713|-84.2623401|"""Warren"""
"Ravenna"|"113 E. Main St., Suite A"|"Ravenna"|"OH"|"info@ofaoh.com"|"(614) 636-2262"|41.1580609|-81.242554|"""Portage"""
"Marion"|"123 E. Church St."|"Marion"|"OH"|"info@ofaoh.com"|"(614) 636-2262"|40.5873077|-83.1281331|"""Marion"""
"Akron"|"1706 W. Market St."|"Akron"|"OH"|"info@ofaoh.com"|"(614) 636-2262"|41.1101575|-81.5704929|"""Summit"""
"Kent"|"1307 South Water St."|"Kent"|"OH"|"info@ofaoh.com"|"(614) 636-2262"|41.142474|-81.357221|"""Portage"""
"Port Clinton"|"131-A Maple St."|"Port Clinton"|"OH"|"info@ofaoh.com"|"(614) 636-2262"|41.5137286|-82.9211764|"""Ottawa"""
"Cincinnati"|"5846 Hamilton Ave."|"Cincinnati"|"OH"|"info@ofaoh.com"|"(614) 636-2262"|39.198324|-84.546268|"""Hamilton"""
"South Russell"|"5192 Chillicothe Rd., Suite 105"|"South Russell"|"OH"|"info@ofaoh.com"|"(614) 636-2262"|41.432294|-81.338722|"""Geauga"""
"Wapakoneta"|"101 W. Auglaize St."|"Wapakoneta"|"OH"|"info@ofaoh.com"|"(614) 636-2262"|40.570312|-84.194987|"""Auglaize"""
"Athens"|"1005 E. State St., Suite #2"|"Athens"|"OH"|"info@ofaoh.com"|"(614) 636-2262"|39.334727|-82.05454|"""Athens"""
"Tiffin"|"112 S. Washington St."|"Tiffin"|"OH"|"info@ofaoh.com"|"(614) 636-2262"|41.1143426|-83.1765322|"""Seneca"""
"Dayton"|"679 Lyons Rd."|"Dayton"|"OH"|"info@ofaoh.com"|"(614) 636-2262"|39.630691|-84.1914886|"""Montgomery"""
"Milford"|"5989 Meijer Dr., Suite 1"|"Milford"|"OH"|"info@ofaoh.com"|"(614) 636-2262"|39.1966434|-84.2397313|"""Clermont"""
"Westerville"|"405 W. Main St."|"Westerville"|"OH"|"info@ofaoh.com"|"(614) 636-2262"|40.1248851|-82.9467652|"""Franklin"""
"Columbus"|"1005 E. Long St., Suite 2 &amp; 3"|"Columbus"|"OH"|"info@ofaoh.com"|"(614) 636-2262"|39.967818|-82.974428|"""Franklin"""
"Oxford"|"32 W. Walnut St."|"Oxford"|"OH"|"info@ofaoh.com"|"(614) 636-2262"|39.509479|-84.7435855|"""Butler"""
"West Chester"|"7232 Towne Centre Dr."|"West Chester"|"OH"|"info@ofaoh.com"|"(614) 636-2262"|39.3713396|-84.3864034|"""Butler"""
"Lisbon"|"7843 State Route 45"|"Lisbon"|"OH"|"info@ofaoh.com"|"(614) 636-2262"|40.7845043|-80.7735062|"""Columbiana"""
"Trotwood"|"4815 Salem Ave."|"Trotwood"|"OH"|"info@ofaoh.com"|"(614) 636-2262"|39.8134064|-84.2694274|"""Montgomery"""
"Cincinnati"|"1130 Main St."|"Cincinnati"|"OH"|"info@ofaoh.com"|"(614) 636-2262"|39.1086229|-84.5113746|"""Hamilton"""
"New Richmond"|"200 Front St."|"New Richmond"|"OH"|"info@ofaoh.com"|"(614) 636-2262"|38.951092|-84.283435|"""Clermont"""
"Martins Ferry"|"301 S. 4th St."|"Martins Ferry"|"OH"|"info@ofaoh.com"|"(614) 636-2262"|40.0946109|-80.7257441|"""Belmont"""
"Napoleon"|"630 Monroe St."|"Napoleon"|"OH"|"info@ofaoh.com"|"(614) 636-2262"|41.3912959|-84.1228299|"""Henry"""
"Canfield"|"4478 Boardman-Canfield Rd., Suite A"|"Canfield"|"OH"|"info@ofaoh.com"|"(614) 636-2262"|41.0246957|-80.7337079|"""Mahoning"""
"Cincinnati"|"11904 Montgomery Rd."|"Cincinnati"|"OH"|"info@ofaoh.com"|"(614) 636-2262"|39.2858266|-84.3095553|"""Hamilton"""
"Dayton"|"7250 Poe Ave."|"Dayton"|"OH"|"info@ofaoh.com"|"(614) 636-2262"|39.8538821|-84.1878822|"""Montgomery"""
"Delaware"|"177 S. Sandusky St."|"Delaware"|"OH"|"info@ofaoh.com"|"(614) 636-2262"|40.2926291|-83.0682782|"""Delaware"""
"Cincinnati"|"7364 Reading Rd."|"Cincinnati"|"OH"|"info@ofaoh.com"|"(614) 636-2262"|39.196888|-84.458246|"""Hamilton"""
"Brunswick"|"1733 Pearl Rd., Suite 121"|"Brunswick"|"OH"|"info@ofaoh.com"|"(614) 636-2262"|41.2277528|-81.838848|"""Medina"""
"Powell"|"132 E. Olentangy St."|"Powell"|"OH"|"info@ofaoh.com"|"(614) 636-2262"|40.1578833|-83.0717098|"""Delaware"""
"Hillsboro"|"721 S. High St."|"Hillsboro"|"OH"|"info@ofaoh.com"|"(614) 636-2262"|39.1939018|-83.6135867|"""Highland"""
"Cleveland"|"4071 Lee Rd., Suite 110"|"Cleveland"|"OH"|"info@ofaoh.com"|"(614) 636-2262"|41.448723|-81.562488|"""Cuyahoga"""
"Mt. Vernon"|"5 W. Ohio Ave."|"Mt. Vernon"|"OH"|"info@ofaoh.com"|"(614) 636-2262"|40.3908172|-82.4857203|"""Knox"""
"Columbus"|"2364 W. Broad St."|"Columbus"|"OH"|"info@ofaoh.com"|"(614) 636-2262"|39.9556944|-83.0635495|"""Franklin"""
"Upper Arlington"|"4939 Dierker Rd."|"Upper Arlington"|"OH"|"info@ofaoh.com"|"(614) 636-2262"|40.0567189|-83.0755786|"""Franklin"""
"Lakewood"|"11822 Detroit Ave."|"Lakewood"|"OH"|"info@ofaoh.com"|"(614) 636-2262"|41.484127|-81.771206|"""Cuyahoga"""
"Lancaster"|"1021 N. Memorial Dr., Suite @"|"Lancaster"|"OH"|"info@ofaoh.com"|"(614) 636-2262"|39.725245|-82.610064|"""Fairfield"""
"Eastlake"|"35560 Vine St., Suite 2"|"Eastlake"|"OH"|"info@ofaoh.com"|"(614) 636-2262"|41.6425573|-81.4347046|"""Lake"""
"Cincinnati"|"3032 W. Galbraith Rd."|"Cincinnati"|"OH"|"info@ofaoh.com"|"(614) 636-2262"|39.2199731|-84.5851593|"""Hamilton"""
"Coshocton"|"611 Main St."|"Coshocton"|"OH"|"info@ofaoh.com"|"(614) 636-2262"|40.2105356|-81.7220685|"""Coshocton"""
"Warren"|"143 Niles-Cortland Rd. NE"|"Warren"|"OH"|"info@ofaoh.com"|"(614) 636-2262"|41.2388649|-80.7405352|"""Trumbull"""
"Barberton"|"530 W. Tuscarawas Ave."|"Barberton"|"OH"|"info@ofaoh.com"|"(614) 636-2262"|41.0127655|-81.6091634|"""Summit"""
"Cleveland"|"3740 Euclid Avenue"|"Cleveland"|"OH"|"info@ofaoh.com"|"(614) 636-2262"|41.502907|-81.659972|"""Cuyahoga"""
"Akron"|"396 Waterloo Rd."|"Akron"|"OH"|"info@ofaoh.com"|"(614) 636-2262"|41.028862|-81.5128035|"""Summit"""
"Hudson"|"1 E. Main St."|"Hudson"|"OH"|"info@ofaoh.com"|"(614) 636-2262"|41.2400947|-81.4396677|"""Summit"""
"Minerva"|"213 N. Market St."|"Minerva"|"OH"|"info@ofaoh.com"|"(614) 636-2262"|40.7294439|-81.1036846|"""Stark"""
"Cleveland"|"12416 Euclid Ave."|"Cleveland"|"OH"|"info@ofaoh.com"|"(614) 636-2262"|41.515721|-81.59615|"""Cuyahoga"""
"Upper Sandusky"|"130 S. Sandusky Ave."|"Upper Sandusky"|"OH"|"info@ofaoh.com"|"(614) 636-2262"|40.8258385|-83.281346|"""Wyandot"""
"Pickerington"|"1256 Hill Rd. N"|"Pickerington"|"OH"|"info@ofaoh.com"|"(614) 636-2262"|39.9150104|-82.7800062|"""Fairfield"""
"Struthers"|"520 Youngstown-Poland Rd."|"Struthers"|"OH"|"info@ofaoh.com"|"(614) 636-2262"|41.0572199|-80.615833|"""Mahoning"""
"Columbus"|"310 E. Hudson St."|"Columbus"|"OH"|"info@ofaoh.com"|"(614) 636-2262"|40.015318|-83.0029304|"""Franklin"""
"Gallipolis"|"35 Court St."|"Gallipolis"|"OH"|"info@ofaoh.com"|"(614) 636-2262"|38.8065437|-82.2073476|"""Gallia"""
"Fremont"|"225 E. State St."|"Fremont"|"OH"|"info@ofaoh.com"|"(614) 636-2262"|41.34579|-83.108827|"""Sandusky"""
"Ironton"|"1520 S. 11th St."|"Ironton"|"OH"|"info@ofaoh.com"|"(614) 636-2262"|38.5282503|-82.6679979|"""Lawrence"""
"Marysville"|"893 Delaware Ave."|"Marysville"|"OH"|"info@ofaoh.com"|"(614) 636-2262"|40.236153|-83.3541089|"""Union"""
"Elyria"|"1573 W. River Rd."|"Elyria"|"OH"|"info@ofaoh.com"|"(614) 636-2262"|41.3561763|-82.1180129|"""Lorain"""
"Massillon"|"24 Lincoln Way"|"Massillon"|"OH"|"info@ofaoh.com"|"(614) 636-2262"|40.7967033|-81.5228585|"""Stark"""
"Cleveland Heights"|"2176 Lee Rd., Down"|"Cleveland Heights"|"OH"|"info@ofaoh.com"|"(614) 636-2262"|41.500351|-81.5657669|"""Cuyahoga"""
"Maumee"|"433 W. Dussel Dr."|"Maumee"|"OH"|"info@ofaoh.com"|"(614) 636-2262"|41.5810713|-83.6765473|"""Lucas"""
"Columbus"|"1247 S. High St."|"Columbus"|"OH"|"info@ofaoh.com"|"(614) 636-2262"|39.936602|-82.996537|"""Franklin"""
"Cleveland"|"468 Richmond Rd., Suite E"|"Cleveland"|"OH"|"info@ofaoh.com"|"(614) 636-2262"|41.5518937|-81.4970887|"""Cuyahoga"""
"Euclid"|"22802 Lake Shore Blvd."|"Euclid"|"OH"|"info@ofaoh.com"|"(614) 636-2262"|41.6119795|-81.5231148|"""Cuyahoga"""
"Mt. Gilead"|"400 W. High St., Suite B,C"|"Mt. Gilead"|"OH"|"info@ofaoh.com"|"(614) 636-2262"|40.548997|-82.8425309|"""Morrow"""
"Xenia"|"30 S. Detroit St."|"Xenia"|"OH"|"info@ofaoh.com"|"(614) 636-2262"|39.6845007|-83.9294974|"""Greene"""
"Painesville"|"216 E. Main St."|"Painesville"|"OH"|"info@ofaoh.com"|"(614) 636-2262"|41.726108|-81.240744|"""Lake"""
"Grove City"|"3965 Hoover Rd."|"Grove City"|"OH"|"info@ofaoh.com"|"(614) 636-2262"|39.8836263|-83.069387|"""Franklin"""
"Botkins"|"108 W. State St."|"Botkins"|"OH"|"info@ofaoh.com"|"(614) 636-2262"|40.4677681|-84.1821723|"""Shelby"""
"Perrysburg"|"118 E. Third St., Suite A"|"Perrysburg"|"OH"|"info@ofaoh.com"|"(614) 636-2262"|41.5583669|-83.6271359|"""Wood"""
"Circleville"|"134 W. Main St."|"Circleville"|"OH"|"info@ofaoh.com"|"(614) 636-2262"|39.6022958|-82.9464293|"""Pickaway"""
"Celina"|"125 S. Main St."|"Celina"|"OH"|"info@ofaoh.com"|"(614) 636-2262"|40.5481581|-84.5709661|"""Mercer"""
"London"|"22 S. Main St."|"London"|"OH"|"info@ofaoh.com"|"(614) 636-2262"|39.886019|-83.44765|"""Madison"""
"Eaton"|"219 E. Main St."|"Eaton"|"OH"|"info@ofaoh.com"|"(614) 636-2262"|39.74353|-84.633791|"""Preble"""
"Alliance"|"1160 E. State St., 4A"|"Alliance"|"OH"|"info@ofaoh.com"|"(614) 636-2262"|40.9016208|-81.0887667|"""Stark"""
"Oberlin"|"5 S. Main St., Suite 204"|"Oberlin"|"OH"|"info@ofaoh.com"|"(614) 636-2262"|41.291512|-82.217037|"""Lorain"""
"Westlake"|"31025 Center Ridge Rd."|"Westlake"|"OH"|"info@ofaoh.com"|"(614) 636-2262"|41.420702|-81.964056|"""Cuyahoga"""
"Bellefontaine"|"2527 US 68 South"|"Bellefontaine"|"OH"|"info@ofaoh.com"|"(614) 636-2262"|40.3308095|-83.7614066|"""Logan"""
"Findlay"|"1041 N. Main St."|"Findlay"|"OH"|"info@ofaoh.com"|"(614) 636-2262"|41.054356|-83.649634|"""Hancock"""
"Warren"|"369 Tod Ave. SW"|"Warren"|"OH"|"info@ofaoh.com"|"(614) 636-2262"|41.231721|-80.8291592|"""Trumbull"""
"Dayton"|"8144 N. Main St."|"Dayton"|"OH"|"info@ofaoh.com"|"(614) 636-2262"|39.8417587|-84.2612123|"""Montgomery"""
"Wadsworth"|"225 Great Oaks Trail"|"Wadsworth"|"OH"|"info@ofaoh.com"|"(614) 636-2262"|41.048992|-81.7333577|"""Medina"""
"Cambridge"|"647 Wheeling Ave."|"Cambridge"|"OH"|"info@ofaoh.com"|"(614) 636-2262"|40.0248334|-81.5921846|"""Guernsey"""
"Toledo"|"3125 Dorr St."|"Toledo"|"OH"|"info@ofaoh.com"|"(614) 636-2262"|41.652592|-83.617866|"""Lucas"""
"Berea"|"374 W. Bagley Rd."|"Berea"|"OH"|"info@ofaoh.com"|"(614) 636-2262"|41.3721641|-81.8663419|"""Cuyahoga"""
"Carrollton"|"39 E. Main St."|"Carrollton"|"OH"|"info@ofaoh.com"|"(614) 636-2262"|40.572643|-81.0853535|"""Carroll"""
"Strongsville"|"14492 Pearl Rd."|"Strongsville"|"OH"|"info@ofaoh.com"|"(614) 636-2262"|41.3095229|-81.8352196|"""Cuyahoga"""
"Wauseon"|"201 N. Fulton St."|"Wauseon"|"OH"|"info@ofaoh.com"|"(614) 636-2262"|41.549252|-84.1420009|"""Fulton"""
"Cleveland"|"2621 Lorain Ave., East Storefront"|"Cleveland"|"OH"|"info@ofaoh.com"|"(614) 636-2262"|41.483342|-81.704507|"""Cuyahoga"""
"Cincinnati"|"775 Eastgate South Dr."|"Cincinnati"|"OH"|"info@ofaoh.com"|"(614) 636-2262"|39.0953287|-84.2691063|"""Clermont"""
"Gahanna"|"181 Granville St."|"Gahanna"|"OH"|"info@ofaoh.com"|"(614) 636-2262"|40.0185402|-82.8749947|"""Franklin"""
"Wellington"|"107 Willard Memorial Sq."|"Wellington"|"OH"|"info@ofaoh.com"|"(614) 636-2262"|41.1680535|-82.2168755|"""Lorain"""
"Medina"|"799 N. Court St., #8"|"Medina"|"OH"|"info@ofaoh.com"|"(614) 636-2262"|41.1488237|-81.8635973|"""Medina"""
"Oklahoma City"|"2421 N. Classen Boulevard"|"Oklahoma City"|"OK"|"mmedrano@barackobama.com"|"(405) 698-9732"|35.493632|-97.5320041|"""Oklahoma"""
"Portland"|"10120 SW Hall Blvd. , Suite 100"|"Portland"|"OR"|"beaverton@ofaor.com"|"(971) 266-0574"|45.446902|-122.76512|"""Washington"""
"Portland"|"1125 SE Madison, Suite 112"|"Portland"|"OR"|"portland@ofaor.com"|"(503) 869-9777"|45.5129299|-122.6544244|"""Multnomah"""
"Salem"|"250 Liberty St. SE"|"Salem"|"OR"|||44.938545|-123.038935|"""Marion"""
"Eugene"|"115 W 6th Ave."|"Eugene"|"OR"||"(541) 525-9387"|44.0533406|-123.0947815|"""Lane"""
"Corvallis"|"132 SW 4th St."|"Corvallis"|"OR"|||44.5640603|-123.2622675|"""Benton"""
"Oak Grove"|"16031 SE McLoughlin Blvd"|"Oak Grove"|"OR"|||45.4068597|-122.6248579|"""Clackamas"""
"Medford"|"132 W. Main St. Suite 101"|"Medford"|"OR"|||42.3252177|-122.8750106|"""Jackson"""
"Erie"|"1305 State St"|"Erie"|"PA"|"StateStreet@ofapa.com"||42.12253|-80.080147|"""Erie"""
"Allentown"|"1031 W Linden St #101"|"Allentown"|"PA"|"WestLinden@ofapa.com"||40.60161|-75.4798068|"""Lehigh"""
"West Chester"|"533 E Gay St"|"West Chester"|"PA"|"EastGay@ofapa.com"||39.9640878|-75.5972399|"""Chester"""
"Pittsburgh"|"1400 Smallman St #1"|"Pittsburgh"|"PA"|"SmallmanStreet@ofapa.com"||40.4484631|-79.9894086|"""Allegheny"""
"State College"|"315 S Allen St #117"|"State College"|"PA"|"SouthAllen@ofapa.com"||40.7923985|-77.8581872|"""Centre"""
"Philadelphia"|"7171 Ogontz Ave"|"Philadelphia"|"PA"|"Ogontz@ofapa.com"||40.06389|-75.152456|"""Philadelphia"""
"Harrisburg"|"10 S 3rd St"|"Harrisburg"|"PA"|"Souththird@ofapa.com"||40.2605198|-76.8801794|"""Dauphin"""
"Elkins Park"|"8120 Old York Rd #4"|"Elkins Park"|"PA"|"OldYork@ofapa.com"||40.0787509|-75.127166|"""Montgomery"""
"Johnstown"|"430 Main St Fl 2"|"Johnstown"|"PA"|"MainSt@OFAPA.com"|"(814) 321-3467"|40.32548|-78.9188823|"""Cambria"""
"Easton"|"91 Larry Holmes Dr #120"|"Easton"|"PA"|"Lholmesdrive@ofapa.com"||40.6930572|-75.205316|"""Northampton"""
"Scranton"|"216 Wyoming Avenue"|"Scranton"|"PA"|"WyomingAve@ofapa.com"||41.4092259|-75.6645905|"""Lackawanna"""
"Norristown"|"1729 Markley St"|"Norristown"|"PA"|"Markeley@ofapa.com"||40.1307604|-75.3348736|"""Montgomery"""
"Philadelphia"|"322 W Chelten Ave"|"Philadelphia"|"PA"|"Chelten@ofapa.com"||40.029482|-75.180699|"""Philadelphia"""
"Reading"|"108 S 5th St Fl 1"|"Reading"|"PA"|"SouthFifth@ofapa.com"||40.3333445|-75.9280753|"""Berks"""
"Philadelphia"|"206 E Girard Ave #C"|"Philadelphia"|"PA"|"EastGirard@ofapa.com"||39.968938|-75.133267|"""Philadelphia"""
"Greensburg"|"101 N Main St, #G-1"|"Greensburg"|"PA"|"NorthMain@OFAPA.com"|"(724) 312-3622"|40.303652|-79.544551|"""Westmoreland"""
"Media"|"340 W Baltimore Ave"|"Media"|"PA"|"WestBaltimore@OFAPA.COM"||39.9174539|-75.3941451|"""Delaware"""
"Beaver Falls"|"1502 7th Ave"|"Beaver Falls"|"PA"|"7thAve@ofapa.com"||40.7561043|-80.3194131|"""Beaver"""
"Philadelphia"|"209 S 52nd St"|"Philadelphia"|"PA"|"52ndStreet@ofapa.com"||39.956647|-75.2254284|"""Philadelphia"""
"York"|"120 W Market St"|"York"|"PA"|"WestMarket@ofapa.com"||39.9616688|-76.7303758|"""York"""
"Pittsburgh"|"1105 E Carson St"|"Pittsburgh"|"PA"|"EastCarson@ofapa.com"||40.4288125|-79.9871534|"""Allegheny"""
"Sharon"|"79 E State St"|"Sharon"|"PA"|"EastStateSt@ofapa.com"||41.232901|-80.5078203|"""Mercer"""
"Bethlehem"|"13 E 3rd St"|"Bethlehem"|"PA"|"EastThird@ofapa.com"||40.6120779|-75.3779724|"""Northampton"""
"Wilkes-Barre"|"70 S Main St"|"Wilkes-Barre"|"PA"|"Wilkes-Barre@ofapa.com"||41.2442331|-75.8844923|"""Luzerne"""
"Coatesville"|"238 E Lincoln Hwy"|"Coatesville"|"PA"|||39.9835164|-75.8211613|"""Chester"""
"Monroeville"|"2675 Monroeville Blvd"|"Monroeville"|"PA"|||40.4362663|-79.780347|"""Allegheny"""
"Chester"|"403 Avenue of the States Fl 1"|"Chester"|"PA"|||39.8475025|-75.3595397|"""Delaware"""
"Philadelphia"|"6841 Germantown Ave"|"Philadelphia"|"PA"|"Germantown@ofapa.com"||40.0554223|-75.1870298|"""Philadelphia"""
"Bristol"|"412 Mill St"|"Bristol"|"PA"|"MillStreet@ofapa.com"||40.0964649|-74.8595244|"""Bucks"""
"Lancaster"|"250 W King St"|"Lancaster"|"PA"|||40.0374326|-76.3106504|"""Lancaster"""
"Pittsburgh"|"200 N Highland Ave Fl 1A"|"Pittsburgh"|"PA"|||40.46265|-79.924416|"""Allegheny"""
"Philadelphia"|"5601 Vine St"|"Philadelphia"|"PA"|||39.96657|-75.232809|"""Philadelphia"""
"Philadelphia"|"1825 E Passyunk Ave"|"Philadelphia"|"PA"|"PassyunkAve@ofapa.com"||39.927093|-75.166382|"""Philadelphia"""
"Doylestown"|"33 S Main St"|"Doylestown"|"PA"|||40.3090385|-75.129936|"""Bucks"""
"Philadelphia"|"5706 N 5th St"|"Philadelphia"|"PA"|||40.0380972|-75.1301477|"""Philadelphia"""
"Williamsport"|"337 Pine St"|"Williamsport"|"PA"|"williamsport@ofapa.com"||41.2410514|-77.0031525|"""Lycoming"""
"Camp Hill"|"3300 Hartzdale Dr #110"|"Camp Hill"|"PA"|"camphill@ofapa.com"||40.226622|-76.925869|"""Cumberland"""
"Stroudsburg"|"912 Main St #102"|"Stroudsburg"|"PA"|"stroudsburg@ofapa.com"||40.9841606|-75.1992248|"""Monroe"""
"Philadelphia"|"9173 Roosevelt Blvd"|"Philadelphia"|"PA"|"NorthPhilly@Ofapa.com"||40.075256|-75.03237|"""Philadelphia"""
"Pottstown"|"238 E High St #203"|"Pottstown"|"PA"|"Pottstown@ofapa.com"||40.2454224|-75.6489034|"""Montgomery"""
"Pittsburgh"|"115 Atwood St"|"Pittsburgh"|"PA"|||40.4415037|-79.9581441|"""Allegheny"""
"Oil City"|"4317 Pennsylvania 257"|"Oil City"|"PA"|||41.4192899|-79.705803|"""Venango"""
"Washington"|"54 W Wheeling St"|"Washington"|"PA"|||40.1690231|-80.2470942|"""Washington"""
"Lansdowne"|"26 N Lansdowne Ave"|"Lansdowne"|"PA"|||39.9391156|-75.272377|"""Delaware"""
"Philadelphia"|"4663 Paul Street"|"Philadelphia"|"PA"|"Frankford@ofapa.com"||40.0160579|-75.0837163|"""Philadelphia"""
"Mt Lebanon"|"2895 West Liberty Ave"|"Mt Lebanon"|"PA"|"MtLebanon@ofapa.com"||40.3948144|-80.034142|"""Allegheny"""
"Philadelphia"|"1737 South Street"|"Philadelphia"|"PA"|||39.9445599|-75.1715176|"""Philadelphia"""
"Hazleton"|"236 West Broad St"|"Hazleton"|"PA"|"hazleton@ofapa.com"||40.9551739|-75.9782082|"""Luzerne"""
"Pottsville"|"111 W. Market St"|"Pottsville"|"PA"|"pottsville@ofapa.com"||40.6857852|-76.1957435|"""Schuylkill"""
"Chambersburg"|"1061 Lincoln Way East"|"Chambersburg"|"PA"|"Chambersburg@ofapa.com"||39.9301689|-77.6400479|"""Franklin"""
"Lewisburg"|"29 South 3rd Street"|"Lewisburg"|"PA"|"Lewisburg@ofapa.com"||40.963553|-76.884444|"""Union"""
"Pittsburgh"|"1722 Murray Ave"|"Pittsburgh"|"PA"|"Murray@ofapa.com"||40.4372389|-79.923075|"""Allegheny"""
"Hanover"|"118 Frederick St"|"Hanover"|"PA"|"Hanover@ofapa.com"||39.798893|-76.984958|"""York"""
"Kennett Square"|"612 S Union Street"|"Kennett Square"|"PA"|"Kennettsquare@ofapa.com"||39.8397188|-75.7101229|"""Chester"""
"Providence"|"151 Broadway, Suite 310"|"Providence"|"RI"|"rhodeisland@barackobama.com"|"(401) 680-0270"|41.8216068|-71.4222558|"""Providence"""
"Columbia"|"717 Lady St., Suite A"|"Columbia"|"SC"|"aalbergottie@ofasc.com"||34.0004788|-81.0416102|"""Richland"""
"Charleston"|"1836 Ashley River Rd. , Suite L"|"Charleston"|"SC"|||32.80357|-80.018744|"""Charleston"""
"Rock Hill"|"1176 Ebenezer Road"|"Rock Hill"|"SC"|||34.9460229|-81.03537|"""York"""
"Sioux Falls"|"4531 E 26th St"|"Sioux Falls"|"SD"|"ZNistler@barackobama.com"|"(320) 293-0006"|43.5293736|-96.6697809|"""Minnehaha"""
"Chattanooga"|"306 West Main Street, Suite 108"|"Chattanooga"|"TN"|"jwilkins@barackobama.com"|"(615) 717-7050"|35.0372266|-85.3105562|"""Hamilton"""
"Dallas"|"4209 Parry Ave"|"Dallas"|"TX"|"tholden@ofatx.com"|"(512) 656-9616"|32.7849419|-96.7644153|"""Dallas"""
"Houston"|"4400 Almeda Ave."|"Houston"|"TX"|||29.7299952|-95.3765417|"""Harris"""
"El Paso"|"2226 Montana Ave"|"El Paso"|"TX"|||31.777979|-106.469241|"""El Paso"""
"Austin"|"2406 Manor Rd"|"Austin"|"TX"|"mklein@ofatx.com"||30.2849388|-97.7168631|"""Travis"""
"Salt Lake City"|"175 West 200 South Suite 1003"|"Salt Lake City"|"UT"|||40.763974|-111.896106|""Salt Lake""
"Burlington"|"77 College St, (Second Floor)"|"Burlington"|"VT"|"vermont@barackobama.com"|"(802) 952-8732"|44.476816|-73.21693|"""Chittenden"""
"Fairfax"|"11215 Lee Highway"|"Fairfax"|"VA"|"Fairfax@ofava.com"|"(703) 309-8019"|38.8514048|-77.3343046|"""Fairfax"""
"Richmond"|"408 E. Main Street"|"Richmond"|"VA"|"Richmond@ofava.com"|"(804) 937-0905"|37.540873|-77.440225|"""Richmond"""
"Petersburg"|"612 S. Sycamore Street"|"Petersburg"|"VA"|"Petersburg@ofava.com"|"(804) 790-9812"|37.2185991|-77.3998439|"""Dinwiddie"""
"Newport News"|"11717 Jefferson Avenue"|"Newport News"|"VA"|"NewportNews@ofava.com"|"(757) 291-6545"|37.079301|-76.478984|"""Chesterfield"""
"Fredericksburg"|"1281 Central Park Blvd"|"Fredericksburg"|"VA"|"Fredericksburg@ofava.com"|"(540) 693-0479"|38.3014229|-77.5141139|"""Spotsylvania"""
"Danville"|"1107 Piney Forest Road"|"Danville"|"VA"|"Danville@ofava.com"|"(434) 515-0802"|36.6240843|-79.4035854|"""Pittsylvania"""
"Charlottesville"|"407 E Main St."|"Charlottesville"|"VA"|"Charlottesville@ofava.com"|"(434) 960-6190"|38.0301241|-78.4794801|"""Charlottesville city"""
"Leesburg"|"56 Sycolin"|"Leesburg"|"VA"|"Loudon@ofava.com"|"(540) 330-3972"|39.1066193|-77.5541474|"""Loudoun"""
"Woodbridge"|"2243-C Old Bridge Road"|"Woodbridge"|"VA"|"PrinceWilliam@ofava.com"|"(703) 303-1563"|38.6780588|-77.2806656|"""Prince William"""
"Virginia Beach"|"485 S. Independence Blvd. , Suite 107 and Suite 108"|"Virginia Beach"|"VA"|"VirginiaBeach@ofava.com"|"(757) 304-2589"|36.8274824|-76.13306|"""Chesterfield"""
"Suffolk"|"114 North Main Street, Suite 102"|"Suffolk"|"VA"|"Suffolk@ofava.com"|"(757) 287-4437"|36.7285156|-76.5830665|"""Chesterfield"""
"Falls Church"|"7285 Arlington Blvd."|"Falls Church"|"VA"|"FallsChurch@ofava.com"|"(703) 362-1831"|38.8659162|-77.1975761|"""Fairfax"""
"Arlington"|"2408 Columbia Pike"|"Arlington"|"VA"|"Arlington@ofava.com"|"(703) 314-5474"|38.8634588|-77.0843163|"""Arlington"""
"Richmond"|"2720 Enterprise Pkwy, Suites 103 and 105"|"Richmond"|"VA"|"Henrico@ofava.com"|"(804) 869-6429"|37.623682|-77.531729|"""Henrico"""
"Alexandria"|"1400 Duke St"|"Alexandria"|"VA"|"Alexandria@ofava.com"|"(703) 341-7671"|38.803391|-77.055637|"""Alexandria city"""
"Norfolk"|"100 West 20th Street"|"Norfolk"|"VA"|"Norfolk@ofava.com"|"(757) 604-4327"|36.8667474|-76.2855184|"""Chesterfield"""
"Blacksburg"|"712 N. Main St., Suite 102"|"Blacksburg"|"VA"|"Blacksburg@ofava.com"|"(540) 330-3092"|37.2356|-80.4205|"""Montgomery"""
"Martinsville"|"33 East Main St.  Suites A&amp;B"|"Martinsville"|"VA"|"Martinsville@ofava.com"|"(276) 299-1393"|36.6915253|-79.872415|"""Henry"""
"Harrisonburg"|"2 North Main Street"|"Harrisonburg"|"VA"|"Harrisonburg@ofava.com"|"(804) 833-7462"|38.449469|-78.868377|"""Rockingham"""
"Portsmouth"|"1215 High Street"|"Portsmouth"|"VA"|"Portsmouth@ofava.com"|"(757) 945-8986"|36.8345569|-76.313506|"""Chesterfield"""
"Charlottesville"|"335 Greenbrier Dr"|"Charlottesville"|"VA"|"Albemarle@ofava.com"|"(434) 422-0764"|38.072273|-78.488525|"""Albemarle"""
"Williamsburg"|"201 Penniman Road"|"Williamsburg"|"VA"|"Williamsburg@ofava.com"|"(757) 947-4237"|37.2733657|-76.6878732|"""James City"""
"Culpeper"|"102 North Main Street, Suites 300/301"|"Culpeper"|"VA"|"Culpeper@ofava.com"|"(212) 851-6222"|38.4731815|-77.9966639|"""Culpeper"""
"Hampton"|"1026 Settler's Landing E"|"Hampton"|"VA"|"Hampton@ofava.com"|"(757) 746-5184"|37.0246685|-76.3320043|"""Isle of Wight"""
"South Boston"|"3166 Halifax Rd."|"South Boston"|"VA"|"Halifax@ofava.com"|"(434) 264-6899"|36.7326627|-78.9183212|"""Halifax"""
"Emporia"|"425 H South Main Street"|"Emporia"|"VA"|"Emporia@ofava.com"|"(757) 287-4437"|36.6853285|-77.5431506|"""Greensville"""
"Fluvanna"|"265 Turkeysag Trail, #110"|"Fluvanna"|"VA"|"Fluvanna@ofava.com"|"(434) 422-0810"|37.904461|-78.341558|"""Fluvanna"""
"Reston"|"1760 Reston Parkway, Suite 200"|"Reston"|"VA"|"Reston@ofava.com"|"(703) 880-6396"|38.96289|-77.354936|"""Fairfax"""
"Chesapeake"|"927 North Battlefield Blvd."|"Chesapeake"|"VA"|"Chesapeake@ofava.com"|"(757) 509-1934"|36.7530466|-76.2469412|"""Isle of Wight"""
"Lynchburg"|"2225 Lakeside Drive, Unit C-1"|"Lynchburg"|"VA"|"Lynchburg@ofava.com"|"(434) 515-1642"|37.398822|-79.20931|"""Campbell"""
"Sterling"|"46396 Benedict Drive  Suite 200"|"Sterling"|"VA"|"Sterling@ofava.com"|"(540) 330-5041"|39.025587|-77.394046|"""Loudoun"""
"Manassas"|"9411 Main Street, Suites 101 &amp; 102"|"Manassas"|"VA"|"Manassas@ofava.com"|"(571) 243-4935"|38.7506668|-77.4715044|"""Prince William"""
"Burke"|"9253 Old Keene Mill Rd"|"Burke"|"VA"|"Springfield@ofava.com"|"(703) 506-5460"|38.775068|-77.265917|"""Fairfax"""
"Winchester"|"106 West Boscawen"|"Winchester"|"VA"|"Winchester@ofava.com"|"(540) 533-6203"|39.1844765|-78.1674542|"""Frederick"""
"Alexandria"|"8796 (G&amp;H) Sacramento Drive"|"Alexandria"|"VA"|"MtVernon@ofava.com"|"(703) 509-7418"|38.7206544|-77.1277624|"""Fairfax"""
"Roanoke"|"109 Norfolk Ave"|"Roanoke"|"VA"|"Roanoke@ofava.com"|"(540) 353-5108"|37.2728519|-79.942778|"""Roanoke"""
"Centreville"|"14260-P Centreville Square"|"Centreville"|"VA"|"Centreville@ofava.com"|"(608) 320-5139"|38.837886|-77.440031|"""Fairfax"""
"Waverly"|"336 West Main Street"|"Waverly"|"VA"|"Waverly@ofava.com"|"(757) 287-4437"|37.0358423|-77.0957605|"""Sussex"""
"Staunton"|"15 E Beverely Street"|"Staunton"|"VA"|"Staunton@ofava.com"|"(540) 330-5101"|38.14971|-79.073219|"""Augusta"""
"Charlottesville"|"1325 W Main St A"|"Charlottesville"|"VA"|"Charlottesville@ofava.com"||38.033965|-78.498841|"""Charlottesville city"""
"Newport News"|"2712 Chestnut Ave."|"Newport News"|"VA"|"NewportNews@ofava.com"|"(757) 968-0140"|36.989157|-76.407174|"""Chesterfield"""
"Tappahannock"|"1388 D Tappahannock Blvd"|"Tappahannock"|"VA"|"Tappahannock@ofava.com"|"(757) 999-4403"|37.9140605|-76.860069|"""Essex"""
"Stafford"|"20 PGA Drive , Suite 101"|"Stafford"|"VA"|"Stafford@ofava.com"|"(540) 631-4704"|38.4445849|-77.398937|"""Stafford"""
"Radford"|"513 East Main St"|"Radford"|"VA"|"Radford@ofava.com"|"(240) 498-4687"|37.1362055|-80.5429535|"""Montgomery"""
"Madison Heights"|"4133 South Amherst Highway"|"Madison Heights"|"VA"||"(540) 330-5672"|37.4636386|-79.1187471|"""Amherst"""
"Fredericksburg"|"10705 Courthouse Rd"|"Fredericksburg"|"VA"|"Spotsylvania@ofava.com"|"(804) 402-4687"|38.246905|-77.513129|"""Spotsylvania"""
"Richmond"|"617 East Belt Boulevard"|"Richmond"|"VA"|"Richmond@ofava.com"|"(804) 426-7202"|37.5021067|-77.4735183|"""Richmond"""
"Richmond"|"4719 Nine Mile Road"|"Richmond"|"VA"|"Henrico@ofava.com"|"(804) 334-2933"|37.543535|-77.370154|"""Henrico"""
"Arlington"|"4401 Wilson Blvd, Suite 10"|"Arlington"|"VA"|"Arlington@ofava.com"||38.8804241|-77.1138177|"""Arlington"""
"Chester"|"15714 Jefferson Davis Highway"|"Chester"|"VA"||"(804) 318-0006"|37.3100651|-77.4085934|"""Chesterfield"""
"Ashland"|"147 Junction Dr."|"Ashland"|"VA"|"Hanover@ofava.com"|"(804) 615-9584"|37.7550996|-77.468087|"""Hanover"""
"South Hill"|"125 North Mecklenburg Ave."|"South Hill"|"VA"|"SouthHill@ofava.com"|"(434) 851-9086"|36.7272605|-78.1286447|"""Mecklenburg"""
"Bristol"|"601 Commonweatlh Ave, Suite 2"|"Bristol"|"VA"|"Bristol@ofava.com"|"(414) 698-9776"|36.6027757|-82.1920545|"""Bristol city"""
"Madison Heights"|"4133 South Amherst Highway"|"Madison Heights"|"VA"|"Amherst@ofava.com"|"(540) 330-5672"|37.4636386|-79.1187471|"""Amherst"""
"Midlothian"|"713 North Courthouse Road"|"Midlothian"|"VA"||"(804) 874-0053"|37.5002721|-77.6089088|"""Chesterfield"""
"South Hill"|"125 North Mecklenburg Ave."|"South Hill"|"VA"||"(434) 851-9086"|36.7272605|-78.1286447|"""Mecklenburg"""
"McLean"|"1312C Chain Bridge Road"|"McLean"|"VA"|"McLean@ofava.com"|"(703) 509-7452"|38.9396905|-77.1747926|"""Fairfax"""
"Farmville"|"236 North Main Street"|"Farmville"|"VA"|"Farmville@ofava.com"|"(434) 260-1632"|37.3030808|-78.3919029|"""Prince Edward"""
"Charles City"|"7501-B Adkins Road"|"Charles City"|"VA"|"CharlesCity@ofava.com"||37.386748|-77.1043059|"""Charles City"""
"Dumfries"|"17997 Dumfries Shopping Plaza"|"Dumfries"|"VA"||"(571) 243-4935"|38.5623203|-77.3278596|"""Prince William"""
"Vienna"|"1952 Gallows Road, Suite 210"|"Vienna"|"VA"|||38.911235|-77.227512|"""Fairfax"""
"Seattle"|"901 Rainier Ave. S."|"Seattle"|"WA"|"washington@barackobama.com"|"(206) 395-2116"|47.5939795|-122.3102218|"""King"""
"Everett"|"2212 Broadway"|"Everett"|"WA"|"washington@barackobama.com"|"(425) 374-8355"|47.987962|-122.20178|"""Snohomish"""
"Tacoma"|"4412 6th Ave"|"Tacoma"|"WA"|"washington@barackobama.com"|"(253) 292-1613"|47.2552333|-122.4968287|"""Pierce"""
"Spokane"|"239 W Main, Ste A"|"Spokane"|"WA"|"washington@barackobama.com"|"(509) 850-3232"|47.6589705|-117.4149646|"""Spokane"""
"Yakima"|"16 South First St"|"Yakima"|"WA"|"washington@barackobama.com"|"(509) 452-7197"|46.6015742|-120.5059974|"""Yakima"""
"Silverdale"|"2819 NW Kitsap Pl, Suite 160"|"Silverdale"|"WA"|"washington@barackobama.com"|"(360) 626-4450"|47.6547709|-122.687274|"""Kitsap"""
"Olympia"|"423 4th Ave"|"Olympia"|"WA"|"washington@barackobama.com"|"(360) 956-0235"|47.045226|-122.8969093|"""Thurston"""
"Vancouver"|"3021 NE 72nd Ave, Suite 35"|"Vancouver"|"WA"|||45.6439899|-122.5990525|"""Clark"""
"Bellevue"|"13333 Bel-Red Rd, Suite 101"|"Bellevue"|"WA"|"Washington@barackobama.com"||47.621937|-122.162671|"""King"""
"Bellingham"|"1155 N State St, Unit 510"|"Bellingham"|"WA"|||48.747376|-122.479226|"""Whatcom"""
"Madison"|"302 East Wilson Street"|"Madison"|"WI"|"EastWilsonOFA2012@gmail.com"|"(608) 620-1893"|43.074922|-89.378387|"""Dane"""
"Milwaukee"|"2201 North Martin Luther King Drive"|"Milwaukee"|"WI"|"JHeflin@ofawi.com"|"(414) 810-2544"|43.0591143|-87.9141493|"""Milwaukee"""
"Milwaukee"|"231 East Wisconsin Avenue"|"Milwaukee"|"WI"||"(414) 840-6925"|43.0386451|-87.9085393|"""Milwaukee"""
"Milwaukee"|"8550 West Brown Deer Road"|"Milwaukee"|"WI"||"(414) 810-2544"|43.1779037|-88.0164675|"""Milwaukee"""
"Racine"|"606 6th Street"|"Racine"|"WI"|"CLuster@ofawi.com"|"(262) 631-9662"|42.7266059|-87.787563|"""Racine"""
"La Crosse"|"116 5th Avenue South"|"La Crosse"|"WI"|"LHundt@ofawi.com"|"(715) 456-7648"|43.811408|-91.250587|"""La Crosse"""
"Milwaukee"|"2403 North Maryland Ave, Suite A"|"Milwaukee"|"WI"||"(414) 379-2846"|43.061551|-87.883282|"""Milwaukee"""
"Kenosha"|"3020 Roosevelt Road"|"Kenosha"|"WI"|"SPage@ofawi.com"|"(608) 628-1345"|42.5717674|-87.8464523|"""Kenosha"""
"Eau Claire"|"405 South Barstow Road"|"Eau Claire"|"WI"|"CFonteno@ofawi.com"|"(715) 432-4421"|44.8099634|-91.4983258|"""Eau Claire"""
"Appleton"|"506  West College Avenue"|"Appleton"|"WI"|"RGriffin@ofawi.com"|"(920) 602-3438"|44.262111|-88.412418|"""Outagamie"""
"Madison"|"222 State Street, Third Floor"|"Madison"|"WI"|"uwmadisonofa2012@gmail.com"|"(608) 301-5726"|43.0749769|-89.389043|"""Dane"""
"Madison"|"2801 West Beltline Highway"|"Madison"|"WI"|"southmadisonofa2012@gmail.com"|"(608) 620-1894"|43.0436822|-89.3608143|"""Dane"""
"Madison"|"1001 Fourier Drive #201"|"Madison"|"WI"|"Westmadisonofa2012@gmail.com"|"(608) 515-8421"|43.080768|-89.523094|"""Dane"""
"Cedarburg"|"W62 N281 Washington Avenue"|"Cedarburg"|"WI"|"sAbraham@ofawi.com"|"(262) 203-4775"|43.2976285|-87.9881828|"""Ozaukee"""
"Green Bay"|"118 South Chestnut Avenue"|"Green Bay"|"WI"|"AMargentina@ofawi.com"|"(920) 530-5442"|44.51615|-88.023797|"""Brown"""
"Milwaukee"|"5160 West Forest Home Avenue"|"Milwaukee"|"WI"|"JHebl@ofawi.com"|"(414) 218-7032"|42.982411|-87.979649|"""Milwaukee"""
"Milwaukee"|"610 South 5th Street"|"Milwaukee"|"WI"|"itorres@ofawi.com"|"(414) 412-8527"|43.0250141|-87.9166962|"""Milwaukee"""
"Manitowoc"|"1207 Washington Street"|"Manitowoc"|"WI"|"ksponheim@ofawi.com"|"(608) 338-3986"|44.0887638|-87.6639964|"""Manitowoc"""
"Beloit"|"314 State Street"|"Beloit"|"WI"|"DGibson@ofawi.com"|"(608) 301-6701"|42.4991907|-89.0359434|"""Rock"""
"Fond Du Lac"|"21 North Portland Street"|"Fond Du Lac"|"WI"|"ARick@ofawi.com"|"(715) 551-5693"|43.7796314|-88.4456092|"""Fond du Lac"""
"Oshkosh"|"480 North Main Street"|"Oshkosh"|"WI"|"SMatthews@ofawi.com"|"(920) 562-6229"|44.0193985|-88.5375333|"""Winnebago"""
"Platteville"|"150 McGregor Plaza"|"Platteville"|"WI"|"PMiller@ofawi.com"|"(715) 699-9513"|42.73707|-90.477501|"""Grant"""
"Hudson"|"901 4th Street #125"|"Hudson"|"WI"|"ljensen@ofawi.com"|"(608) 286-0849"|44.9792134|-92.7540333|"""St. Croix"""
"Sheboygan"|"816 Erie Avenue"|"Sheboygan"|"WI"|"AStys@ofawi.com"|"(920) 445-3805"|43.756663|-87.71366|"""Sheboygan"""
"Janesville"|"111 West Milwaukee Street"|"Janesville"|"WI"|"MPuchaksky@ofawi.com"|"(608) 228-0673"|42.6819268|-89.025176|"""Rock"""
"Ashland"|"316 West Main Street"|"Ashland"|"WI"|"AOlson@ofawi.com"|"(715) 815-0095"|46.5899492|-90.8864967|"""Ashland"""
"Wausau"|"217 Scott Street"|"Wausau"|"WI"|"GCapossela@ofawi.com"|"(715) 699-9269"|44.9606667|-89.6285294|"""Marathon"""
"Stevens Point"|"2220 South Division Street"|"Stevens Point"|"WI"|"JRinehart@ofawi.com"|"(920) 750-2548"|44.515|-89.5751|"""Portage"""
"Portage"|"216 W Wisconsin"|"Portage"|"WI"|"Doug Haefele"|"(608) 338-3793"|43.538886|-89.460571|"""Columbia"""
"Viroqua"|"210 S Main Street"|"Viroqua"|"WI"|"Tyler Anderson"|"(715) 571-9963"|43.5561825|-90.8893527|"""Vernon"""
"Richland Center"|"900 N Main Street"|"Richland Center"|"WI"|"Will Buros"|"(608) 604-5241"|43.3428169|-90.3864916|"""Richland"""
"Dodgeville"|"414 S Iowa Street"|"Dodgeville"|"WI"|"Paydon Miller"|"(715) 699-9513"|42.9565|-90.13079|"""Iowa"""
"Northside Milwaukee"|"7984 W Appleton Ave"|"Northside Milwaukee"|"WI"|"Kyle Budha"|"(517)862-1107"|43.1001411|-88.0121539|"""Milwaukee"""
"River Falls"|"1025 South Main St, # 450"|"River Falls"|"WI"|"Laura Jensen"|"(608) 286-0849"|44.8473806|-92.6299474|"""Pierce"""
"Menomonie"|"334 21st Avenue W."|"Menomonie"|"WI"|"Molly Wyant"|"(715) 574-5010"|44.863604|-91.934076|"""Dunn"""
"Chippewa Falls"|"103 North Bridge St, # 310"|"Chippewa Falls"|"WI"|"Chelsea Fonteno"|"(715) 432-4421"|44.9357645|-91.3916272|"""Chippewa"""
"Sturgeon Bay"|"62 South 3rd Ave"|"Sturgeon Bay"|"WI"|"Allin Walker"|"(920) 493-2912"|44.833764|-87.375375|"""Door"""
"Elkhorn"|"10 S Washington Street"|"Elkhorn"|"WI"|"Ellen Holly"|"(262) 374-0614"|42.6715527|-88.5422764|"""Walworth"""
"Kenosha"|"5535 6th Ave"|"Kenosha"|"WI"|"Jeremy Cohen"|"(562)508-3153"|42.5852017|-87.818627|"""Kenosha"""
"Rice Lake"|"113 N Main Street"|"Rice Lake"|"WI"|"Adam Olson"|"(715) 790-8746"|45.502977|-91.7332559|"""Barron"""
"Rhinelander"|"29 W Davenport Street"|"Rhinelander"|"WI"|"Tyler Anderson"|"(715) 367-0374"|45.6378196|-89.4119879|"""Oneida"""
"Shawano"|"713 E Green Bay"|"Shawano"|"WI"|"Sherry Newquist"|"(715) 584-8040"|44.7821049|-88.6004136|"""Shawano"""
"Marshfield"|"225 S. Central Avenue"|"Marshfield"|"WI"|"Jessica Rinehart"|"(920) 750-2548"|44.6654463|-90.174662|"""Wood"""
"Beaver Dam"|"116 Monroe Street"|"Beaver Dam"|"WI"|"Samir Paul"|"(920) 664-6493"|43.4551348|-88.8196928|"""Dodge"""
"Columbus"|"315 E James Street"|"Columbus"|"WI"|"Ray Frey"|"(305) 395-1679"|43.336961|-89.012074|"""Columbia"""
"Superior"|"1810 Belknap Street"|"Superior"|"WI"|"MRaunio@ofawi.com"|"(715) 245-3982"|46.7206662|-92.104936|"""Douglas"""
"Milwaukee"|"4417 West North Ave"|"Milwaukee"|"WI"|"dmeloy@ofawi.com"|"(414) 534-4602"|43.0606277|-87.9694436|"""Milwaukee"""
"Sun Prairie"|"1632 West Main Street"|"Sun Prairie"|"WI"|"sfeld@ofawi.com"|"(608) 338-2268"|43.1783069|-89.241085|"""Dane"""
"Stoughton"|"220 West Main Street"|"Stoughton"|"WI"|"JMacken@ofawi.com"|"(608) 301-6697"|42.917011|-89.222074|"""Dane"""
"Cudahy"|"5656 S Packard Ave, Unit 10"|"Cudahy"|"WI"|"NRostollan@ofawi.com"|"(414) 418-1058"|42.9422217|-87.8577612|"""Milwaukee"""
"Ripon"|"227 Watson St"|"Ripon"|"WI"|"spaul@ofawi.com"|"(920) 664-6493"|43.844463|-88.838453|"""Fond du Lac"""
"Waukesha"|"741 Grand Street, Suites 100 and 102"|"Waukesha"|"WI"|"srikkers@ofawi.com"|"(608) 886-7229"|42.9954217|-88.2319889|"""Waukesha"""
"Brookfield"|"3165 North 124th Street"|"Brookfield"|"WI"||"(262) 607-2629"|43.076068|-88.067355|"""Waukesha"""
"Green County"|"1113 16th Ave."|"Green County"|"WI"|"Carol Mixdorf"|"920-419-5470"|42.600741|-89.640202|"""Green"""
"Marinette"|"1515 Marinette Avenue"|"Marinette"|"WI"|"Jacob Lindenbaum"|"(608) 286-0869"|45.090651|-87.6491829|"""Marinette"""
"Jefferson"|"320 Wisconsin Drive"|"Jefferson"|"WI"|"Erin Sievert"|"(608) 577-2269"|43.0034282|-88.8114832|"""Jefferson"""
"Amery"|"110 Keller Ave N"|"Amery"|"WI"|"MIke Raunio"|"(715) 245-3982"|45.311891|-92.3620675|"""Polk"""
"Baraboo"|"13119 State Road 33"|"Baraboo"|"WI"|"Anne Schwab"|"(608) 609-4046"|43.5478139|-90.154127|"""Sauk"""
"Burlington"|"101 S Pine Street"|"Burlington"|"WI"|"Cailin Kolk"|"(262) 527-3924"|42.676531|-88.274471|"""Racine"""
"Eagle River"|"602 Michigan Sreet"|"Eagle River"|"WI"|"Tyler Anderson"|"(715) 571-9963"|45.9225741|-89.2556454|"""Vilas"""
"Glendale"|"6807 N. Green Bay Road"|"Glendale"|"WI"|"Seamus Regan"|"(414) 429-1064"|43.1409569|-87.9334726|"""Milwaukee"""
"Monroe"|"1113 16th Avenue"|"Monroe"|"WI"|"Jimmy Macken"|"(608) 301-6697"|42.600741|-89.640202|"""Green"""
"Merrill"|"908 Cleveland Street"|"Merrill"|"WI"|"Matt Jarson"|"(608) 609-4698"|45.1878816|-89.6909877|"""Lincoln"""
"Minocqua"|"8683 Highway 51"|"Minocqua"|"WI"|"Tyler Anderson"|"(715) 571-9963"|45.8897632|-89.701949|"""Oneida"""
"Reedsburg"|"648 W. Main Street"|"Reedsburg"|"WI"|"Anne Schwab"|"(608) 609-4046"|43.532633|-90.024038|"""Sauk"""
"West Bend"|"132 N Main Street"|"West Bend"|"WI"|"Dawn Myers"|"(414) 581-6706"|43.4237598|-88.1826659|"""Washington"""
"Whitewater"|"177 Main Street"|"Whitewater"|"WI"|"Bryant Plank"|"(608) 301-6688"|42.8339686|-88.7285433|"""Walworth"""
"Madison"|"210 N. Bassett St. # 110"|"Madison"|"WI"|"Syd Terry"||43.0717766|-89.393143|"""Dane"""
"Morgantown"|"122 South High St. Suite B"|"Morgantown"|"WV"|||39.625056|-79.960567|"""Monongalia"""
"Laramie"|"211 Grand Ave."|"Laramie"|"WY"|"RVernonKubichek@barackobama.com"|"(307) 223-6649"|41.3110658|-105.5942674|"""Albany"""
